<?xml version="1.0" encoding="UTF-8"?><TrainingCenterDatabase xmlns="http://www.garmin.com/xmlschemas/TrainingCenterDatabase/v2"><Activities><Activity Sport="Other"><Id>2025-12-21T12:38:59.000Z</Id><Lap StartTime="2025-12-21T12:38:59.000Z"><TotalTimeSeconds>653.0</TotalTimeSeconds><DistanceMeters>0.0</DistanceMeters><Calories>124</Calories><AverageHeartRateBpm><Value>143</Value></AverageHeartRateBpm><MaximumHeartRateBpm><Value>173</Value></MaximumHeartRateBpm><Intensity>Active</Intensity><TriggerMethod>Manual</TriggerMethod><Track><Trackpoint><Time>2025-12-21T12:39:00.000Z</Time><HeartRateBpm><Value>62</Value></HeartRateBpm><SensorState>Present</SensorState></Trackpoint><Trackpoint><Time>2025-12-21T12:39:01.000Z</Time><HeartRateBpm><Value>62</Value></HeartRateBpm><SensorState>Present</SensorState></Trackpoint><Trackpoint><Time>2025-12-21T12:39:02.000Z</Time><HeartRateBpm><Value>62</Value></HeartRateBpm><SensorState>Present</SensorState></Trackpoint><Trackpoint><Time>2025-12-21T12:39:03.000Z</Time><HeartRateBpm><Value>63</Value></HeartRateBpm><SensorState>Present</SensorState></Trackpoint><Trackpoint><Time>2025-12-21T12:39:04.000Z</Time><HeartRateBpm><Value>64</Value></HeartRateBpm><SensorState>Present</SensorState></Trackpoint><Trackpoint><Time>2025-12-21T12:39:05.000Z</Time><HeartRateBpm><Value>64</Value></HeartRateBpm><SensorState>Present</SensorState></Trackpoint><Trackpoint><Time>2025-12-21T12:39:06.000Z</Time><HeartRateBpm><Value>65</Value></HeartRateBpm><SensorState>Present</SensorState></Trackpoint><Trackpoint><Time>2025-12-21T12:39:07.000Z</Time><HeartRateBpm><Value>65</Value></HeartRateBpm><SensorState>Present</SensorState></Trackpoint><Trackpoint><Time>2025-12-21T12:39:08.000Z</Time><HeartRateBpm><Value>65</Value></HeartRateBpm><SensorState>Present</SensorState></Trackpoint><Trackpoint><Time>2025-12-21T12:39:09.000Z</Time><HeartRateBpm><Value>65</Value></HeartRateBpm><SensorState>Present</SensorState></Trackpoint><Trackpoint><Time>2025-12-21T12:39:10.000Z</Time><HeartRateBpm><Value>65</Value></HeartRateBpm><SensorState>Present</SensorState></Trackpoint><Trackpoint><Time>2025-12-21T12:39:11.000Z</Time><HeartRateBpm><Value>65</Value></HeartRateBpm><SensorState>Present</SensorState></Trackpoint><Trackpoint><Time>2025-12-21T12:39:12.000Z</Time><HeartRateBpm><Value>66</Value></HeartRateBpm><SensorState>Present</SensorState></Trackpoint><Trackpoint><Time>2025-12-21T12:39:13.000Z</Time><HeartRateBpm><Value>67</Value></HeartRateBpm><SensorState>Present</SensorState></Trackpoint><Trackpoint><Time>2025-12-21T12:39:14.000Z</Time><HeartRateBpm><Value>67</Value></HeartRateBpm><SensorState>Present</SensorState></Trackpoint><Trackpoint><Time>2025-12-21T12:39:15.000Z</Time><HeartRateBpm><Value>67</Value></HeartRateBpm><SensorState>Present</SensorState></Trackpoint><Trackpoint><Time>2025-12-21T12:39:16.000Z</Time><HeartRateBpm><Value>70</Value></HeartRateBpm><SensorState>Present</SensorState></Trackpoint><Trackpoint><Time>2025-12-21T12:39:17.000Z</Time><HeartRateBpm><Value>72</Value></HeartRateBpm><SensorState>Present</SensorState></Trackpoint><Trackpoint><Time>2025-12-21T12:39:18.000Z</Time><HeartRateBpm><Value>74</Value></HeartRateBpm><SensorState>Present</SensorState></Trackpoint><Trackpoint><Time>2025-12-21T12:39:19.000Z</Time><HeartRateBpm><Value>75</Value></HeartRateBpm><SensorState>Present</SensorState></Trackpoint><Trackpoint><Time>2025-12-21T12:39:20.000Z</Time><HeartRateBpm><Value>76</Value></HeartRateBpm><SensorState>Present</SensorState></Trackpoint><Trackpoint><Time>2025-12-21T12:39:21.000Z</Time><HeartRateBpm><Value>78</Value></HeartRateBpm><SensorState>Present</SensorState></Trackpoint><Trackpoint><Time>2025-12-21T12:39:22.000Z</Time><HeartRateBpm><Value>79</Value></HeartRateBpm><SensorState>Present</SensorState></Trackpoint><Trackpoint><Time>2025-12-21T12:39:23.000Z</Time><HeartRateBpm><Value>80</Value></HeartRateBpm><SensorState>Present</SensorState></Trackpoint><Trackpoint><Time>2025-12-21T12:39:24.000Z</Time><HeartRateBpm><Value>80</Value></HeartRateBpm><SensorState>Present</SensorState></Trackpoint><Trackpoint><Time>2025-12-21T12:39:25.000Z</Time><HeartRateBpm><Value>82</Value></HeartRateBpm><SensorState>Present</SensorState></Trackpoint><Trackpoint><Time>2025-12-21T12:39:26.000Z</Time><HeartRateBpm><Value>83</Value></HeartRateBpm><SensorState>Present</SensorState></Trackpoint><Trackpoint><Time>2025-12-21T12:39:27.000Z</Time><HeartRateBpm><Value>86</Value></HeartRateBpm><SensorState>Present</SensorState></Trackpoint><Trackpoint><Time>2025-12-21T12:39:28.000Z</Time><HeartRateBpm><Value>86</Value></HeartRateBpm><SensorState>Present</SensorState></Trackpoint><Trackpoint><Time>2025-12-21T12:39:29.000Z</Time><HeartRateBpm><Value>86</Value></HeartRateBpm><SensorState>Present</SensorState></Trackpoint><Trackpoint><Time>2025-12-21T12:39:30.000Z</Time><HeartRateBpm><Value>87</Value></HeartRateBpm><SensorState>Present</SensorState></Trackpoint><Trackpoint><Time>2025-12-21T12:39:31.000Z</Time><HeartRateBpm><Value>85</Value></HeartRateBpm><SensorState>Present</SensorState></Trackpoint><Trackpoint><Time>2025-12-21T12:39:32.000Z</Time><HeartRateBpm><Value>83</Value></HeartRateBpm><SensorState>Present</SensorState></Trackpoint><Trackpoint><Time>2025-12-21T12:39:33.000Z</Time><HeartRateBpm><Value>80</Value></HeartRateBpm><SensorState>Present</SensorState></Trackpoint><Trackpoint><Time>2025-12-21T12:39:34.000Z</Time><HeartRateBpm><Value>80</Value></HeartRateBpm><SensorState>Present</SensorState></Trackpoint><Trackpoint><Time>2025-12-21T12:39:35.000Z</Time><HeartRateBpm><Value>78</Value></HeartRateBpm><SensorState>Present</SensorState></Trackpoint><Trackpoint><Time>2025-12-21T12:39:36.000Z</Time><HeartRateBpm><Value>79</Value></HeartRateBpm><SensorState>Present</SensorState></Trackpoint><Trackpoint><Time>2025-12-21T12:39:37.000Z</Time><HeartRateBpm><Value>83</Value></HeartRateBpm><SensorState>Present</SensorState></Trackpoint><Trackpoint><Time>2025-12-21T12:39:38.000Z</Time><HeartRateBpm><Value>84</Value></HeartRateBpm><SensorState>Present</SensorState></Trackpoint><Trackpoint><Time>2025-12-21T12:39:39.000Z</Time><HeartRateBpm><Value>85</Value></HeartRateBpm><SensorState>Present</SensorState></Trackpoint><Trackpoint><Time>2025-12-21T12:39:40.000Z</Time><HeartRateBpm><Value>85</Value></HeartRateBpm><SensorState>Present</SensorState></Trackpoint><Trackpoint><Time>2025-12-21T12:39:41.000Z</Time><HeartRateBpm><Value>86</Value></HeartRateBpm><SensorState>Present</SensorState></Trackpoint><Trackpoint><Time>2025-12-21T12:39:42.000Z</Time><HeartRateBpm><Value>86</Value></HeartRateBpm><SensorState>Present</SensorState></Trackpoint><Trackpoint><Time>2025-12-21T12:39:43.000Z</Time><HeartRateBpm><Value>85</Value></HeartRateBpm><SensorState>Present</SensorState></Trackpoint><Trackpoint><Time>2025-12-21T12:39:44.000Z</Time><HeartRateBpm><Value>86</Value></HeartRateBpm><SensorState>Present</SensorState></Trackpoint><Trackpoint><Time>2025-12-21T12:39:45.000Z</Time><HeartRateBpm><Value>87</Value></HeartRateBpm><SensorState>Present</SensorState></Trackpoint><Trackpoint><Time>2025-12-21T12:39:46.000Z</Time><HeartRateBpm><Value>89</Value></HeartRateBpm><SensorState>Present</SensorState></Trackpoint><Trackpoint><Time>2025-12-21T12:39:47.000Z</Time><HeartRateBpm><Value>90</Value></HeartRateBpm><SensorState>Present</SensorState></Trackpoint><Trackpoint><Time>2025-12-21T12:39:48.000Z</Time><HeartRateBpm><Value>90</Value></HeartRateBpm><SensorState>Present</SensorState></Trackpoint><Trackpoint><Time>2025-12-21T12:39:49.000Z</Time><HeartRateBpm><Value>91</Value></HeartRateBpm><SensorState>Present</SensorState></Trackpoint><Trackpoint><Time>2025-12-21T12:39:50.000Z</Time><HeartRateBpm><Value>91</Value></HeartRateBpm><SensorState>Present</SensorState></Trackpoint><Trackpoint><Time>2025-12-21T12:39:51.000Z</Time><HeartRateBpm><Value>90</Value></HeartRateBpm><SensorState>Present</SensorState></Trackpoint><Trackpoint><Time>2025-12-21T12:39:52.000Z</Time><HeartRateBpm><Value>88</Value></HeartRateBpm><SensorState>Present</SensorState></Trackpoint><Trackpoint><Time>2025-12-21T12:39:53.000Z</Time><HeartRateBpm><Value>86</Value></HeartRateBpm><SensorState>Present</SensorState></Trackpoint><Trackpoint><Time>2025-12-21T12:39:54.000Z</Time><HeartRateBpm><Value>81</Value></HeartRateBpm><SensorState>Present</SensorState></Trackpoint><Trackpoint><Time>2025-12-21T12:39:55.000Z</Time><HeartRateBpm><Value>81</Value></HeartRateBpm><SensorState>Present</SensorState></Trackpoint><Trackpoint><Time>2025-12-21T12:39:56.000Z</Time><HeartRateBpm><Value>81</Value></HeartRateBpm><SensorState>Present</SensorState></Trackpoint><Trackpoint><Time>2025-12-21T12:39:57.000Z</Time><HeartRateBpm><Value>79</Value></HeartRateBpm><SensorState>Present</SensorState></Trackpoint><Trackpoint><Time>2025-12-21T12:39:58.000Z</Time><HeartRateBpm><Value>78</Value></HeartRateBpm><SensorState>Present</SensorState></Trackpoint><Trackpoint><Time>2025-12-21T12:39:59.000Z</Time><HeartRateBpm><Value>75</Value></HeartRateBpm><SensorState>Present</SensorState></Trackpoint><Trackpoint><Time>2025-12-21T12:40:00.000Z</Time><HeartRateBpm><Value>75</Value></HeartRateBpm><SensorState>Present</SensorState></Trackpoint><Trackpoint><Time>2025-12-21T12:40:01.000Z</Time><HeartRateBpm><Value>75</Value></HeartRateBpm><SensorState>Present</SensorState></Trackpoint><Trackpoint><Time>2025-12-21T12:40:02.000Z</Time><HeartRateBpm><Value>77</Value></HeartRateBpm><SensorState>Present</SensorState></Trackpoint><Trackpoint><Time>2025-12-21T12:40:03.000Z</Time><HeartRateBpm><Value>77</Value></HeartRateBpm><SensorState>Present</SensorState></Trackpoint><Trackpoint><Time>2025-12-21T12:40:04.000Z</Time><HeartRateBpm><Value>77</Value></HeartRateBpm><SensorState>Present</SensorState></Trackpoint><Trackpoint><Time>2025-12-21T12:40:05.000Z</Time><HeartRateBpm><Value>78</Value></HeartRateBpm><SensorState>Present</SensorState></Trackpoint><Trackpoint><Time>2025-12-21T12:40:06.000Z</Time><HeartRateBpm><Value>78</Value></HeartRateBpm><SensorState>Present</SensorState></Trackpoint><Trackpoint><Time>2025-12-21T12:40:07.000Z</Time><HeartRateBpm><Value>78</Value></HeartRateBpm><SensorState>Present</SensorState></Trackpoint><Trackpoint><Time>2025-12-21T12:40:08.000Z</Time><HeartRateBpm><Value>78</Value></HeartRateBpm><SensorState>Present</SensorState></Trackpoint><Trackpoint><Time>2025-12-21T12:40:09.000Z</Time><HeartRateBpm><Value>79</Value></HeartRateBpm><SensorState>Present</SensorState></Trackpoint><Trackpoint><Time>2025-12-21T12:40:10.000Z</Time><HeartRateBpm><Value>84</Value></HeartRateBpm><SensorState>Present</SensorState></Trackpoint><Trackpoint><Time>2025-12-21T12:40:11.000Z</Time><HeartRateBpm><Value>93</Value></HeartRateBpm><SensorState>Present</SensorState></Trackpoint><Trackpoint><Time>2025-12-21T12:40:12.000Z</Time><HeartRateBpm><Value>101</Value></HeartRateBpm><SensorState>Present</SensorState></Trackpoint><Trackpoint><Time>2025-12-21T12:40:13.000Z</Time><HeartRateBpm><Value>105</Value></HeartRateBpm><SensorState>Present</SensorState></Trackpoint><Trackpoint><Time>2025-12-21T12:40:14.000Z</Time><HeartRateBpm><Value>107</Value></HeartRateBpm><SensorState>Present</SensorState></Trackpoint><Trackpoint><Time>2025-12-21T12:40:15.000Z</Time><HeartRateBpm><Value>108</Value></HeartRateBpm><SensorState>Present</SensorState></Trackpoint><Trackpoint><Time>2025-12-21T12:40:16.000Z</Time><HeartRateBpm><Value>111</Value></HeartRateBpm><SensorState>Present</SensorState></Trackpoint><Trackpoint><Time>2025-12-21T12:40:17.000Z</Time><HeartRateBpm><Value>113</Value></HeartRateBpm><SensorState>Present</SensorState></Trackpoint><Trackpoint><Time>2025-12-21T12:40:18.000Z</Time><HeartRateBpm><Value>113</Value></HeartRateBpm><SensorState>Present</SensorState></Trackpoint><Trackpoint><Time>2025-12-21T12:40:19.000Z</Time><HeartRateBpm><Value>114</Value></HeartRateBpm><SensorState>Present</SensorState></Trackpoint><Trackpoint><Time>2025-12-21T12:40:20.000Z</Time><HeartRateBpm><Value>114</Value></HeartRateBpm><SensorState>Present</SensorState></Trackpoint><Trackpoint><Time>2025-12-21T12:40:21.000Z</Time><HeartRateBpm><Value>114</Value></HeartRateBpm><SensorState>Present</SensorState></Trackpoint><Trackpoint><Time>2025-12-21T12:40:22.000Z</Time><HeartRateBpm><Value>115</Value></HeartRateBpm><SensorState>Present</SensorState></Trackpoint><Trackpoint><Time>2025-12-21T12:40:23.000Z</Time><HeartRateBpm><Value>115</Value></HeartRateBpm><SensorState>Present</SensorState></Trackpoint><Trackpoint><Time>2025-12-21T12:40:24.000Z</Time><HeartRateBpm><Value>116</Value></HeartRateBpm><SensorState>Present</SensorState></Trackpoint><Trackpoint><Time>2025-12-21T12:40:25.000Z</Time><HeartRateBpm><Value>118</Value></HeartRateBpm><SensorState>Present</SensorState></Trackpoint><Trackpoint><Time>2025-12-21T12:40:26.000Z</Time><HeartRateBpm><Value>120</Value></HeartRateBpm><SensorState>Present</SensorState></Trackpoint><Trackpoint><Time>2025-12-21T12:40:27.000Z</Time><HeartRateBpm><Value>122</Value></HeartRateBpm><SensorState>Present</SensorState></Trackpoint><Trackpoint><Time>2025-12-21T12:40:28.000Z</Time><HeartRateBpm><Value>125</Value></HeartRateBpm><SensorState>Present</SensorState></Trackpoint><Trackpoint><Time>2025-12-21T12:40:29.000Z</Time><HeartRateBpm><Value>127</Value></HeartRateBpm><SensorState>Present</SensorState></Trackpoint><Trackpoint><Time>2025-12-21T12:40:30.000Z</Time><HeartRateBpm><Value>134</Value></HeartRateBpm><SensorState>Present</SensorState></Trackpoint><Trackpoint><Time>2025-12-21T12:40:31.000Z</Time><HeartRateBpm><Value>134</Value></HeartRateBpm><SensorState>Present</SensorState></Trackpoint><Trackpoint><Time>2025-12-21T12:40:32.000Z</Time><HeartRateBpm><Value>132</Value></HeartRateBpm><SensorState>Present</SensorState></Trackpoint><Trackpoint><Time>2025-12-21T12:40:33.000Z</Time><HeartRateBpm><Value>131</Value></HeartRateBpm><SensorState>Present</SensorState></Trackpoint><Trackpoint><Time>2025-12-21T12:40:34.000Z</Time><HeartRateBpm><Value>130</Value></HeartRateBpm><SensorState>Present</SensorState></Trackpoint><Trackpoint><Time>2025-12-21T12:40:35.000Z</Time><HeartRateBpm><Value>130</Value></HeartRateBpm><SensorState>Present</SensorState></Trackpoint><Trackpoint><Time>2025-12-21T12:40:36.000Z</Time><HeartRateBpm><Value>130</Value></HeartRateBpm><SensorState>Present</SensorState></Trackpoint><Trackpoint><Time>2025-12-21T12:40:37.000Z</Time><HeartRateBpm><Value>130</Value></HeartRateBpm><SensorState>Present</SensorState></Trackpoint><Trackpoint><Time>2025-12-21T12:40:38.000Z</Time><HeartRateBpm><Value>130</Value></HeartRateBpm><SensorState>Present</SensorState></Trackpoint><Trackpoint><Time>2025-12-21T12:40:39.000Z</Time><HeartRateBpm><Value>129</Value></HeartRateBpm><SensorState>Present</SensorState></Trackpoint><Trackpoint><Time>2025-12-21T12:40:40.000Z</Time><HeartRateBpm><Value>133</Value></HeartRateBpm><SensorState>Present</SensorState></Trackpoint><Trackpoint><Time>2025-12-21T12:40:41.000Z</Time><HeartRateBpm><Value>137</Value></HeartRateBpm><SensorState>Present</SensorState></Trackpoint><Trackpoint><Time>2025-12-21T12:40:42.000Z</Time><HeartRateBpm><Value>139</Value></HeartRateBpm><SensorState>Present</SensorState></Trackpoint><Trackpoint><Time>2025-12-21T12:40:43.000Z</Time><HeartRateBpm><Value>140</Value></HeartRateBpm><SensorState>Present</SensorState></Trackpoint><Trackpoint><Time>2025-12-21T12:40:44.000Z</Time><HeartRateBpm><Value>142</Value></HeartRateBpm><SensorState>Present</SensorState></Trackpoint><Trackpoint><Time>2025-12-21T12:40:45.000Z</Time><HeartRateBpm><Value>143</Value></HeartRateBpm><SensorState>Present</SensorState></Trackpoint><Trackpoint><Time>2025-12-21T12:40:46.000Z</Time><HeartRateBpm><Value>143</Value></HeartRateBpm><SensorState>Present</SensorState></Trackpoint><Trackpoint><Time>2025-12-21T12:40:47.000Z</Time><HeartRateBpm><Value>144</Value></HeartRateBpm><SensorState>Present</SensorState></Trackpoint><Trackpoint><Time>2025-12-21T12:40:48.000Z</Time><HeartRateBpm><Value>144</Value></HeartRateBpm><SensorState>Present</SensorState></Trackpoint><Trackpoint><Time>2025-12-21T12:40:49.000Z</Time><HeartRateBpm><Value>144</Value></HeartRateBpm><SensorState>Present</SensorState></Trackpoint><Trackpoint><Time>2025-12-21T12:40:50.000Z</Time><HeartRateBpm><Value>145</Value></HeartRateBpm><SensorState>Present</SensorState></Trackpoint><Trackpoint><Time>2025-12-21T12:40:51.000Z</Time><HeartRateBpm><Value>145</Value></HeartRateBpm><SensorState>Present</SensorState></Trackpoint><Trackpoint><Time>2025-12-21T12:40:52.000Z</Time><HeartRateBpm><Value>145</Value></HeartRateBpm><SensorState>Present</SensorState></Trackpoint><Trackpoint><Time>2025-12-21T12:40:53.000Z</Time><HeartRateBpm><Value>145</Value></HeartRateBpm><SensorState>Present</SensorState></Trackpoint><Trackpoint><Time>2025-12-21T12:40:54.000Z</Time><HeartRateBpm><Value>145</Value></HeartRateBpm><SensorState>Present</SensorState></Trackpoint><Trackpoint><Time>2025-12-21T12:40:55.000Z</Time><HeartRateBpm><Value>145</Value></HeartRateBpm><SensorState>Present</SensorState></Trackpoint><Trackpoint><Time>2025-12-21T12:40:56.000Z</Time><HeartRateBpm><Value>145</Value></HeartRateBpm><SensorState>Present</SensorState></Trackpoint><Trackpoint><Time>2025-12-21T12:40:57.000Z</Time><HeartRateBpm><Value>146</Value></HeartRateBpm><SensorState>Present</SensorState></Trackpoint><Trackpoint><Time>2025-12-21T12:40:58.000Z</Time><HeartRateBpm><Value>146</Value></HeartRateBpm><SensorState>Present</SensorState></Trackpoint><Trackpoint><Time>2025-12-21T12:40:59.000Z</Time><HeartRateBpm><Value>146</Value></HeartRateBpm><SensorState>Present</SensorState></Trackpoint><Trackpoint><Time>2025-12-21T12:41:00.000Z</Time><HeartRateBpm><Value>146</Value></HeartRateBpm><SensorState>Present</SensorState></Trackpoint><Trackpoint><Time>2025-12-21T12:41:01.000Z</Time><HeartRateBpm><Value>146</Value></HeartRateBpm><SensorState>Present</SensorState></Trackpoint><Trackpoint><Time>2025-12-21T12:41:02.000Z</Time><HeartRateBpm><Value>146</Value></HeartRateBpm><SensorState>Present</SensorState></Trackpoint><Trackpoint><Time>2025-12-21T12:41:03.000Z</Time><HeartRateBpm><Value>147</Value></HeartRateBpm><SensorState>Present</SensorState></Trackpoint><Trackpoint><Time>2025-12-21T12:41:04.000Z</Time><HeartRateBpm><Value>148</Value></HeartRateBpm><SensorState>Present</SensorState></Trackpoint><Trackpoint><Time>2025-12-21T12:41:05.000Z</Time><HeartRateBpm><Value>150</Value></HeartRateBpm><SensorState>Present</SensorState></Trackpoint><Trackpoint><Time>2025-12-21T12:41:06.000Z</Time><HeartRateBpm><Value>151</Value></HeartRateBpm><SensorState>Present</SensorState></Trackpoint><Trackpoint><Time>2025-12-21T12:41:07.000Z</Time><HeartRateBpm><Value>151</Value></HeartRateBpm><SensorState>Present</SensorState></Trackpoint><Trackpoint><Time>2025-12-21T12:41:08.000Z</Time><HeartRateBpm><Value>152</Value></HeartRateBpm><SensorState>Present</SensorState></Trackpoint><Trackpoint><Time>2025-12-21T12:41:09.000Z</Time><HeartRateBpm><Value>152</Value></HeartRateBpm><SensorState>Present</SensorState></Trackpoint><Trackpoint><Time>2025-12-21T12:41:10.000Z</Time><HeartRateBpm><Value>152</Value></HeartRateBpm><SensorState>Present</SensorState></Trackpoint><Trackpoint><Time>2025-12-21T12:41:11.000Z</Time><HeartRateBpm><Value>152</Value></HeartRateBpm><SensorState>Present</SensorState></Trackpoint><Trackpoint><Time>2025-12-21T12:41:12.000Z</Time><HeartRateBpm><Value>152</Value></HeartRateBpm><SensorState>Present</SensorState></Trackpoint><Trackpoint><Time>2025-12-21T12:41:13.000Z</Time><HeartRateBpm><Value>152</Value></HeartRateBpm><SensorState>Present</SensorState></Trackpoint><Trackpoint><Time>2025-12-21T12:41:14.000Z</Time><HeartRateBpm><Value>151</Value></HeartRateBpm><SensorState>Present</SensorState></Trackpoint><Trackpoint><Time>2025-12-21T12:41:15.000Z</Time><HeartRateBpm><Value>150</Value></HeartRateBpm><SensorState>Present</SensorState></Trackpoint><Trackpoint><Time>2025-12-21T12:41:16.000Z</Time><HeartRateBpm><Value>150</Value></HeartRateBpm><SensorState>Present</SensorState></Trackpoint><Trackpoint><Time>2025-12-21T12:41:17.000Z</Time><HeartRateBpm><Value>150</Value></HeartRateBpm><SensorState>Present</SensorState></Trackpoint><Trackpoint><Time>2025-12-21T12:41:18.000Z</Time><HeartRateBpm><Value>149</Value></HeartRateBpm><SensorState>Present</SensorState></Trackpoint><Trackpoint><Time>2025-12-21T12:41:19.000Z</Time><HeartRateBpm><Value>148</Value></HeartRateBpm><SensorState>Present</SensorState></Trackpoint><Trackpoint><Time>2025-12-21T12:41:20.000Z</Time><HeartRateBpm><Value>148</Value></HeartRateBpm><SensorState>Present</SensorState></Trackpoint><Trackpoint><Time>2025-12-21T12:41:21.000Z</Time><HeartRateBpm><Value>146</Value></HeartRateBpm><SensorState>Present</SensorState></Trackpoint><Trackpoint><Time>2025-12-21T12:41:22.000Z</Time><HeartRateBpm><Value>145</Value></HeartRateBpm><SensorState>Present</SensorState></Trackpoint><Trackpoint><Time>2025-12-21T12:41:23.000Z</Time><HeartRateBpm><Value>145</Value></HeartRateBpm><SensorState>Present</SensorState></Trackpoint><Trackpoint><Time>2025-12-21T12:41:24.000Z</Time><HeartRateBpm><Value>146</Value></HeartRateBpm><SensorState>Present</SensorState></Trackpoint><Trackpoint><Time>2025-12-21T12:41:25.000Z</Time><HeartRateBpm><Value>146</Value></HeartRateBpm><SensorState>Present</SensorState></Trackpoint><Trackpoint><Time>2025-12-21T12:41:26.000Z</Time><HeartRateBpm><Value>146</Value></HeartRateBpm><SensorState>Present</SensorState></Trackpoint><Trackpoint><Time>2025-12-21T12:41:27.000Z</Time><HeartRateBpm><Value>147</Value></HeartRateBpm><SensorState>Present</SensorState></Trackpoint><Trackpoint><Time>2025-12-21T12:41:28.000Z</Time><HeartRateBpm><Value>147</Value></HeartRateBpm><SensorState>Present</SensorState></Trackpoint><Trackpoint><Time>2025-12-21T12:41:29.000Z</Time><HeartRateBpm><Value>147</Value></HeartRateBpm><SensorState>Present</SensorState></Trackpoint><Trackpoint><Time>2025-12-21T12:41:30.000Z</Time><HeartRateBpm><Value>147</Value></HeartRateBpm><SensorState>Present</SensorState></Trackpoint><Trackpoint><Time>2025-12-21T12:41:31.000Z</Time><HeartRateBpm><Value>147</Value></HeartRateBpm><SensorState>Present</SensorState></Trackpoint><Trackpoint><Time>2025-12-21T12:41:32.000Z</Time><HeartRateBpm><Value>147</Value></HeartRateBpm><SensorState>Present</SensorState></Trackpoint><Trackpoint><Time>2025-12-21T12:41:33.000Z</Time><HeartRateBpm><Value>147</Value></HeartRateBpm><SensorState>Present</SensorState></Trackpoint><Trackpoint><Time>2025-12-21T12:41:34.000Z</Time><HeartRateBpm><Value>147</Value></HeartRateBpm><SensorState>Present</SensorState></Trackpoint><Trackpoint><Time>2025-12-21T12:41:35.000Z</Time><HeartRateBpm><Value>147</Value></HeartRateBpm><SensorState>Present</SensorState></Trackpoint><Trackpoint><Time>2025-12-21T12:41:36.000Z</Time><HeartRateBpm><Value>146</Value></HeartRateBpm><SensorState>Present</SensorState></Trackpoint><Trackpoint><Time>2025-12-21T12:41:37.000Z</Time><HeartRateBpm><Value>146</Value></HeartRateBpm><SensorState>Present</SensorState></Trackpoint><Trackpoint><Time>2025-12-21T12:41:38.000Z</Time><HeartRateBpm><Value>146</Value></HeartRateBpm><SensorState>Present</SensorState></Trackpoint><Trackpoint><Time>2025-12-21T12:41:39.000Z</Time><HeartRateBpm><Value>145</Value></HeartRateBpm><SensorState>Present</SensorState></Trackpoint><Trackpoint><Time>2025-12-21T12:41:40.000Z</Time><HeartRateBpm><Value>145</Value></HeartRateBpm><SensorState>Present</SensorState></Trackpoint><Trackpoint><Time>2025-12-21T12:41:41.000Z</Time><HeartRateBpm><Value>145</Value></HeartRateBpm><SensorState>Present</SensorState></Trackpoint><Trackpoint><Time>2025-12-21T12:41:42.000Z</Time><HeartRateBpm><Value>144</Value></HeartRateBpm><SensorState>Present</SensorState></Trackpoint><Trackpoint><Time>2025-12-21T12:41:43.000Z</Time><HeartRateBpm><Value>144</Value></HeartRateBpm><SensorState>Present</SensorState></Trackpoint><Trackpoint><Time>2025-12-21T12:41:44.000Z</Time><HeartRateBpm><Value>144</Value></HeartRateBpm><SensorState>Present</SensorState></Trackpoint><Trackpoint><Time>2025-12-21T12:41:45.000Z</Time><HeartRateBpm><Value>144</Value></HeartRateBpm><SensorState>Present</SensorState></Trackpoint><Trackpoint><Time>2025-12-21T12:41:46.000Z</Time><HeartRateBpm><Value>144</Value></HeartRateBpm><SensorState>Present</SensorState></Trackpoint><Trackpoint><Time>2025-12-21T12:41:47.000Z</Time><HeartRateBpm><Value>144</Value></HeartRateBpm><SensorState>Present</SensorState></Trackpoint><Trackpoint><Time>2025-12-21T12:41:48.000Z</Time><HeartRateBpm><Value>144</Value></HeartRateBpm><SensorState>Present</SensorState></Trackpoint><Trackpoint><Time>2025-12-21T12:41:49.000Z</Time><HeartRateBpm><Value>144</Value></HeartRateBpm><SensorState>Present</SensorState></Trackpoint><Trackpoint><Time>2025-12-21T12:41:50.000Z</Time><HeartRateBpm><Value>144</Value></HeartRateBpm><SensorState>Present</SensorState></Trackpoint><Trackpoint><Time>2025-12-21T12:41:51.000Z</Time><HeartRateBpm><Value>143</Value></HeartRateBpm><SensorState>Present</SensorState></Trackpoint><Trackpoint><Time>2025-12-21T12:41:52.000Z</Time><HeartRateBpm><Value>143</Value></HeartRateBpm><SensorState>Present</SensorState></Trackpoint><Trackpoint><Time>2025-12-21T12:41:53.000Z</Time><HeartRateBpm><Value>143</Value></HeartRateBpm><SensorState>Present</SensorState></Trackpoint><Trackpoint><Time>2025-12-21T12:41:54.000Z</Time><HeartRateBpm><Value>143</Value></HeartRateBpm><SensorState>Present</SensorState></Trackpoint><Trackpoint><Time>2025-12-21T12:41:55.000Z</Time><HeartRateBpm><Value>144</Value></HeartRateBpm><SensorState>Present</SensorState></Trackpoint><Trackpoint><Time>2025-12-21T12:41:56.000Z</Time><HeartRateBpm><Value>145</Value></HeartRateBpm><SensorState>Present</SensorState></Trackpoint><Trackpoint><Time>2025-12-21T12:41:57.000Z</Time><HeartRateBpm><Value>145</Value></HeartRateBpm><SensorState>Present</SensorState></Trackpoint><Trackpoint><Time>2025-12-21T12:41:58.000Z</Time><HeartRateBpm><Value>146</Value></HeartRateBpm><SensorState>Present</SensorState></Trackpoint><Trackpoint><Time>2025-12-21T12:41:59.000Z</Time><HeartRateBpm><Value>147</Value></HeartRateBpm><SensorState>Present</SensorState></Trackpoint><Trackpoint><Time>2025-12-21T12:42:00.000Z</Time><HeartRateBpm><Value>147</Value></HeartRateBpm><SensorState>Present</SensorState></Trackpoint><Trackpoint><Time>2025-12-21T12:42:01.000Z</Time><HeartRateBpm><Value>148</Value></HeartRateBpm><SensorState>Present</SensorState></Trackpoint><Trackpoint><Time>2025-12-21T12:42:02.000Z</Time><HeartRateBpm><Value>148</Value></HeartRateBpm><SensorState>Present</SensorState></Trackpoint><Trackpoint><Time>2025-12-21T12:42:03.000Z</Time><HeartRateBpm><Value>149</Value></HeartRateBpm><SensorState>Present</SensorState></Trackpoint><Trackpoint><Time>2025-12-21T12:42:04.000Z</Time><HeartRateBpm><Value>150</Value></HeartRateBpm><SensorState>Present</SensorState></Trackpoint><Trackpoint><Time>2025-12-21T12:42:05.000Z</Time><HeartRateBpm><Value>150</Value></HeartRateBpm><SensorState>Present</SensorState></Trackpoint><Trackpoint><Time>2025-12-21T12:42:06.000Z</Time><HeartRateBpm><Value>151</Value></HeartRateBpm><SensorState>Present</SensorState></Trackpoint><Trackpoint><Time>2025-12-21T12:42:07.000Z</Time><HeartRateBpm><Value>151</Value></HeartRateBpm><SensorState>Present</SensorState></Trackpoint><Trackpoint><Time>2025-12-21T12:42:08.000Z</Time><HeartRateBpm><Value>152</Value></HeartRateBpm><SensorState>Present</SensorState></Trackpoint><Trackpoint><Time>2025-12-21T12:42:09.000Z</Time><HeartRateBpm><Value>152</Value></HeartRateBpm><SensorState>Present</SensorState></Trackpoint><Trackpoint><Time>2025-12-21T12:42:10.000Z</Time><HeartRateBpm><Value>153</Value></HeartRateBpm><SensorState>Present</SensorState></Trackpoint><Trackpoint><Time>2025-12-21T12:42:11.000Z</Time><HeartRateBpm><Value>153</Value></HeartRateBpm><SensorState>Present</SensorState></Trackpoint><Trackpoint><Time>2025-12-21T12:42:12.000Z</Time><HeartRateBpm><Value>153</Value></HeartRateBpm><SensorState>Present</SensorState></Trackpoint><Trackpoint><Time>2025-12-21T12:42:13.000Z</Time><HeartRateBpm><Value>154</Value></HeartRateBpm><SensorState>Present</SensorState></Trackpoint><Trackpoint><Time>2025-12-21T12:42:14.000Z</Time><HeartRateBpm><Value>154</Value></HeartRateBpm><SensorState>Present</SensorState></Trackpoint><Trackpoint><Time>2025-12-21T12:42:15.000Z</Time><HeartRateBpm><Value>154</Value></HeartRateBpm><SensorState>Present</SensorState></Trackpoint><Trackpoint><Time>2025-12-21T12:42:16.000Z</Time><HeartRateBpm><Value>154</Value></HeartRateBpm><SensorState>Present</SensorState></Trackpoint><Trackpoint><Time>2025-12-21T12:42:17.000Z</Time><HeartRateBpm><Value>155</Value></HeartRateBpm><SensorState>Present</SensorState></Trackpoint><Trackpoint><Time>2025-12-21T12:42:18.000Z</Time><HeartRateBpm><Value>156</Value></HeartRateBpm><SensorState>Present</SensorState></Trackpoint><Trackpoint><Time>2025-12-21T12:42:19.000Z</Time><HeartRateBpm><Value>156</Value></HeartRateBpm><SensorState>Present</SensorState></Trackpoint><Trackpoint><Time>2025-12-21T12:42:20.000Z</Time><HeartRateBpm><Value>156</Value></HeartRateBpm><SensorState>Present</SensorState></Trackpoint><Trackpoint><Time>2025-12-21T12:42:21.000Z</Time><HeartRateBpm><Value>156</Value></HeartRateBpm><SensorState>Present</SensorState></Trackpoint><Trackpoint><Time>2025-12-21T12:42:22.000Z</Time><HeartRateBpm><Value>156</Value></HeartRateBpm><SensorState>Present</SensorState></Trackpoint><Trackpoint><Time>2025-12-21T12:42:23.000Z</Time><HeartRateBpm><Value>156</Value></HeartRateBpm><SensorState>Present</SensorState></Trackpoint><Trackpoint><Time>2025-12-21T12:42:24.000Z</Time><HeartRateBpm><Value>156</Value></HeartRateBpm><SensorState>Present</SensorState></Trackpoint><Trackpoint><Time>2025-12-21T12:42:25.000Z</Time><HeartRateBpm><Value>156</Value></HeartRateBpm><SensorState>Present</SensorState></Trackpoint><Trackpoint><Time>2025-12-21T12:42:26.000Z</Time><HeartRateBpm><Value>156</Value></HeartRateBpm><SensorState>Present</SensorState></Trackpoint><Trackpoint><Time>2025-12-21T12:42:27.000Z</Time><HeartRateBpm><Value>157</Value></HeartRateBpm><SensorState>Present</SensorState></Trackpoint><Trackpoint><Time>2025-12-21T12:42:28.000Z</Time><HeartRateBpm><Value>157</Value></HeartRateBpm><SensorState>Present</SensorState></Trackpoint><Trackpoint><Time>2025-12-21T12:42:29.000Z</Time><HeartRateBpm><Value>158</Value></HeartRateBpm><SensorState>Present</SensorState></Trackpoint><Trackpoint><Time>2025-12-21T12:42:30.000Z</Time><HeartRateBpm><Value>158</Value></HeartRateBpm><SensorState>Present</SensorState></Trackpoint><Trackpoint><Time>2025-12-21T12:42:31.000Z</Time><HeartRateBpm><Value>159</Value></HeartRateBpm><SensorState>Present</SensorState></Trackpoint><Trackpoint><Time>2025-12-21T12:42:32.000Z</Time><HeartRateBpm><Value>159</Value></HeartRateBpm><SensorState>Present</SensorState></Trackpoint><Trackpoint><Time>2025-12-21T12:42:33.000Z</Time><HeartRateBpm><Value>159</Value></HeartRateBpm><SensorState>Present</SensorState></Trackpoint><Trackpoint><Time>2025-12-21T12:42:34.000Z</Time><HeartRateBpm><Value>159</Value></HeartRateBpm><SensorState>Present</SensorState></Trackpoint><Trackpoint><Time>2025-12-21T12:42:35.000Z</Time><HeartRateBpm><Value>160</Value></HeartRateBpm><SensorState>Present</SensorState></Trackpoint><Trackpoint><Time>2025-12-21T12:42:36.000Z</Time><HeartRateBpm><Value>160</Value></HeartRateBpm><SensorState>Present</SensorState></Trackpoint><Trackpoint><Time>2025-12-21T12:42:37.000Z</Time><HeartRateBpm><Value>160</Value></HeartRateBpm><SensorState>Present</SensorState></Trackpoint><Trackpoint><Time>2025-12-21T12:42:38.000Z</Time><HeartRateBpm><Value>160</Value></HeartRateBpm><SensorState>Present</SensorState></Trackpoint><Trackpoint><Time>2025-12-21T12:42:39.000Z</Time><HeartRateBpm><Value>160</Value></HeartRateBpm><SensorState>Present</SensorState></Trackpoint><Trackpoint><Time>2025-12-21T12:42:40.000Z</Time><HeartRateBpm><Value>160</Value></HeartRateBpm><SensorState>Present</SensorState></Trackpoint><Trackpoint><Time>2025-12-21T12:42:41.000Z</Time><HeartRateBpm><Value>160</Value></HeartRateBpm><SensorState>Present</SensorState></Trackpoint><Trackpoint><Time>2025-12-21T12:42:42.000Z</Time><HeartRateBpm><Value>160</Value></HeartRateBpm><SensorState>Present</SensorState></Trackpoint><Trackpoint><Time>2025-12-21T12:42:43.000Z</Time><HeartRateBpm><Value>160</Value></HeartRateBpm><SensorState>Present</SensorState></Trackpoint><Trackpoint><Time>2025-12-21T12:42:44.000Z</Time><HeartRateBpm><Value>159</Value></HeartRateBpm><SensorState>Present</SensorState></Trackpoint><Trackpoint><Time>2025-12-21T12:42:45.000Z</Time><HeartRateBpm><Value>159</Value></HeartRateBpm><SensorState>Present</SensorState></Trackpoint><Trackpoint><Time>2025-12-21T12:42:46.000Z</Time><HeartRateBpm><Value>158</Value></HeartRateBpm><SensorState>Present</SensorState></Trackpoint><Trackpoint><Time>2025-12-21T12:42:47.000Z</Time><HeartRateBpm><Value>158</Value></HeartRateBpm><SensorState>Present</SensorState></Trackpoint><Trackpoint><Time>2025-12-21T12:42:48.000Z</Time><HeartRateBpm><Value>158</Value></HeartRateBpm><SensorState>Present</SensorState></Trackpoint><Trackpoint><Time>2025-12-21T12:42:49.000Z</Time><HeartRateBpm><Value>158</Value></HeartRateBpm><SensorState>Present</SensorState></Trackpoint><Trackpoint><Time>2025-12-21T12:42:50.000Z</Time><HeartRateBpm><Value>158</Value></HeartRateBpm><SensorState>Present</SensorState></Trackpoint><Trackpoint><Time>2025-12-21T12:42:51.000Z</Time><HeartRateBpm><Value>157</Value></HeartRateBpm><SensorState>Present</SensorState></Trackpoint><Trackpoint><Time>2025-12-21T12:42:52.000Z</Time><HeartRateBpm><Value>157</Value></HeartRateBpm><SensorState>Present</SensorState></Trackpoint><Trackpoint><Time>2025-12-21T12:42:53.000Z</Time><HeartRateBpm><Value>157</Value></HeartRateBpm><SensorState>Present</SensorState></Trackpoint><Trackpoint><Time>2025-12-21T12:42:54.000Z</Time><HeartRateBpm><Value>156</Value></HeartRateBpm><SensorState>Present</SensorState></Trackpoint><Trackpoint><Time>2025-12-21T12:42:55.000Z</Time><HeartRateBpm><Value>156</Value></HeartRateBpm><SensorState>Present</SensorState></Trackpoint><Trackpoint><Time>2025-12-21T12:42:56.000Z</Time><HeartRateBpm><Value>156</Value></HeartRateBpm><SensorState>Present</SensorState></Trackpoint><Trackpoint><Time>2025-12-21T12:42:57.000Z</Time><HeartRateBpm><Value>156</Value></HeartRateBpm><SensorState>Present</SensorState></Trackpoint><Trackpoint><Time>2025-12-21T12:42:58.000Z</Time><HeartRateBpm><Value>156</Value></HeartRateBpm><SensorState>Present</SensorState></Trackpoint><Trackpoint><Time>2025-12-21T12:42:59.000Z</Time><HeartRateBpm><Value>156</Value></HeartRateBpm><SensorState>Present</SensorState></Trackpoint><Trackpoint><Time>2025-12-21T12:43:00.000Z</Time><HeartRateBpm><Value>155</Value></HeartRateBpm><SensorState>Present</SensorState></Trackpoint><Trackpoint><Time>2025-12-21T12:43:01.000Z</Time><HeartRateBpm><Value>155</Value></HeartRateBpm><SensorState>Present</SensorState></Trackpoint><Trackpoint><Time>2025-12-21T12:43:02.000Z</Time><HeartRateBpm><Value>155</Value></HeartRateBpm><SensorState>Present</SensorState></Trackpoint><Trackpoint><Time>2025-12-21T12:43:03.000Z</Time><HeartRateBpm><Value>155</Value></HeartRateBpm><SensorState>Present</SensorState></Trackpoint><Trackpoint><Time>2025-12-21T12:43:04.000Z</Time><HeartRateBpm><Value>155</Value></HeartRateBpm><SensorState>Present</SensorState></Trackpoint><Trackpoint><Time>2025-12-21T12:43:05.000Z</Time><HeartRateBpm><Value>154</Value></HeartRateBpm><SensorState>Present</SensorState></Trackpoint><Trackpoint><Time>2025-12-21T12:43:06.000Z</Time><HeartRateBpm><Value>154</Value></HeartRateBpm><SensorState>Present</SensorState></Trackpoint><Trackpoint><Time>2025-12-21T12:43:07.000Z</Time><HeartRateBpm><Value>154</Value></HeartRateBpm><SensorState>Present</SensorState></Trackpoint><Trackpoint><Time>2025-12-21T12:43:08.000Z</Time><HeartRateBpm><Value>153</Value></HeartRateBpm><SensorState>Present</SensorState></Trackpoint><Trackpoint><Time>2025-12-21T12:43:09.000Z</Time><HeartRateBpm><Value>153</Value></HeartRateBpm><SensorState>Present</SensorState></Trackpoint><Trackpoint><Time>2025-12-21T12:43:10.000Z</Time><HeartRateBpm><Value>152</Value></HeartRateBpm><SensorState>Present</SensorState></Trackpoint><Trackpoint><Time>2025-12-21T12:43:11.000Z</Time><HeartRateBpm><Value>152</Value></HeartRateBpm><SensorState>Present</SensorState></Trackpoint><Trackpoint><Time>2025-12-21T12:43:12.000Z</Time><HeartRateBpm><Value>151</Value></HeartRateBpm><SensorState>Present</SensorState></Trackpoint><Trackpoint><Time>2025-12-21T12:43:13.000Z</Time><HeartRateBpm><Value>151</Value></HeartRateBpm><SensorState>Present</SensorState></Trackpoint><Trackpoint><Time>2025-12-21T12:43:14.000Z</Time><HeartRateBpm><Value>151</Value></HeartRateBpm><SensorState>Present</SensorState></Trackpoint><Trackpoint><Time>2025-12-21T12:43:15.000Z</Time><HeartRateBpm><Value>151</Value></HeartRateBpm><SensorState>Present</SensorState></Trackpoint><Trackpoint><Time>2025-12-21T12:43:16.000Z</Time><HeartRateBpm><Value>151</Value></HeartRateBpm><SensorState>Present</SensorState></Trackpoint><Trackpoint><Time>2025-12-21T12:43:17.000Z</Time><HeartRateBpm><Value>151</Value></HeartRateBpm><SensorState>Present</SensorState></Trackpoint><Trackpoint><Time>2025-12-21T12:43:18.000Z</Time><HeartRateBpm><Value>151</Value></HeartRateBpm><SensorState>Present</SensorState></Trackpoint><Trackpoint><Time>2025-12-21T12:43:19.000Z</Time><HeartRateBpm><Value>151</Value></HeartRateBpm><SensorState>Present</SensorState></Trackpoint><Trackpoint><Time>2025-12-21T12:43:20.000Z</Time><HeartRateBpm><Value>151</Value></HeartRateBpm><SensorState>Present</SensorState></Trackpoint><Trackpoint><Time>2025-12-21T12:43:21.000Z</Time><HeartRateBpm><Value>151</Value></HeartRateBpm><SensorState>Present</SensorState></Trackpoint><Trackpoint><Time>2025-12-21T12:43:22.000Z</Time><HeartRateBpm><Value>150</Value></HeartRateBpm><SensorState>Present</SensorState></Trackpoint><Trackpoint><Time>2025-12-21T12:43:23.000Z</Time><HeartRateBpm><Value>149</Value></HeartRateBpm><SensorState>Present</SensorState></Trackpoint><Trackpoint><Time>2025-12-21T12:43:24.000Z</Time><HeartRateBpm><Value>149</Value></HeartRateBpm><SensorState>Present</SensorState></Trackpoint><Trackpoint><Time>2025-12-21T12:43:25.000Z</Time><HeartRateBpm><Value>147</Value></HeartRateBpm><SensorState>Present</SensorState></Trackpoint><Trackpoint><Time>2025-12-21T12:43:26.000Z</Time><HeartRateBpm><Value>147</Value></HeartRateBpm><SensorState>Present</SensorState></Trackpoint><Trackpoint><Time>2025-12-21T12:43:27.000Z</Time><HeartRateBpm><Value>147</Value></HeartRateBpm><SensorState>Present</SensorState></Trackpoint><Trackpoint><Time>2025-12-21T12:43:28.000Z</Time><HeartRateBpm><Value>146</Value></HeartRateBpm><SensorState>Present</SensorState></Trackpoint><Trackpoint><Time>2025-12-21T12:43:29.000Z</Time><HeartRateBpm><Value>146</Value></HeartRateBpm><SensorState>Present</SensorState></Trackpoint><Trackpoint><Time>2025-12-21T12:43:30.000Z</Time><HeartRateBpm><Value>146</Value></HeartRateBpm><SensorState>Present</SensorState></Trackpoint><Trackpoint><Time>2025-12-21T12:43:31.000Z</Time><HeartRateBpm><Value>146</Value></HeartRateBpm><SensorState>Present</SensorState></Trackpoint><Trackpoint><Time>2025-12-21T12:43:32.000Z</Time><HeartRateBpm><Value>147</Value></HeartRateBpm><SensorState>Present</SensorState></Trackpoint><Trackpoint><Time>2025-12-21T12:43:33.000Z</Time><HeartRateBpm><Value>147</Value></HeartRateBpm><SensorState>Present</SensorState></Trackpoint><Trackpoint><Time>2025-12-21T12:43:34.000Z</Time><HeartRateBpm><Value>148</Value></HeartRateBpm><SensorState>Present</SensorState></Trackpoint><Trackpoint><Time>2025-12-21T12:43:35.000Z</Time><HeartRateBpm><Value>149</Value></HeartRateBpm><SensorState>Present</SensorState></Trackpoint><Trackpoint><Time>2025-12-21T12:43:36.000Z</Time><HeartRateBpm><Value>150</Value></HeartRateBpm><SensorState>Present</SensorState></Trackpoint><Trackpoint><Time>2025-12-21T12:43:37.000Z</Time><HeartRateBpm><Value>151</Value></HeartRateBpm><SensorState>Present</SensorState></Trackpoint><Trackpoint><Time>2025-12-21T12:43:38.000Z</Time><HeartRateBpm><Value>151</Value></HeartRateBpm><SensorState>Present</SensorState></Trackpoint><Trackpoint><Time>2025-12-21T12:43:39.000Z</Time><HeartRateBpm><Value>152</Value></HeartRateBpm><SensorState>Present</SensorState></Trackpoint><Trackpoint><Time>2025-12-21T12:43:40.000Z</Time><HeartRateBpm><Value>152</Value></HeartRateBpm><SensorState>Present</SensorState></Trackpoint><Trackpoint><Time>2025-12-21T12:43:41.000Z</Time><HeartRateBpm><Value>153</Value></HeartRateBpm><SensorState>Present</SensorState></Trackpoint><Trackpoint><Time>2025-12-21T12:43:42.000Z</Time><HeartRateBpm><Value>153</Value></HeartRateBpm><SensorState>Present</SensorState></Trackpoint><Trackpoint><Time>2025-12-21T12:43:43.000Z</Time><HeartRateBpm><Value>154</Value></HeartRateBpm><SensorState>Present</SensorState></Trackpoint><Trackpoint><Time>2025-12-21T12:43:44.000Z</Time><HeartRateBpm><Value>155</Value></HeartRateBpm><SensorState>Present</SensorState></Trackpoint><Trackpoint><Time>2025-12-21T12:43:45.000Z</Time><HeartRateBpm><Value>155</Value></HeartRateBpm><SensorState>Present</SensorState></Trackpoint><Trackpoint><Time>2025-12-21T12:43:46.000Z</Time><HeartRateBpm><Value>156</Value></HeartRateBpm><SensorState>Present</SensorState></Trackpoint><Trackpoint><Time>2025-12-21T12:43:47.000Z</Time><HeartRateBpm><Value>156</Value></HeartRateBpm><SensorState>Present</SensorState></Trackpoint><Trackpoint><Time>2025-12-21T12:43:48.000Z</Time><HeartRateBpm><Value>156</Value></HeartRateBpm><SensorState>Present</SensorState></Trackpoint><Trackpoint><Time>2025-12-21T12:43:49.000Z</Time><HeartRateBpm><Value>157</Value></HeartRateBpm><SensorState>Present</SensorState></Trackpoint><Trackpoint><Time>2025-12-21T12:43:50.000Z</Time><HeartRateBpm><Value>157</Value></HeartRateBpm><SensorState>Present</SensorState></Trackpoint><Trackpoint><Time>2025-12-21T12:43:51.000Z</Time><HeartRateBpm><Value>157</Value></HeartRateBpm><SensorState>Present</SensorState></Trackpoint><Trackpoint><Time>2025-12-21T12:43:52.000Z</Time><HeartRateBpm><Value>157</Value></HeartRateBpm><SensorState>Present</SensorState></Trackpoint><Trackpoint><Time>2025-12-21T12:43:53.000Z</Time><HeartRateBpm><Value>158</Value></HeartRateBpm><SensorState>Present</SensorState></Trackpoint><Trackpoint><Time>2025-12-21T12:43:54.000Z</Time><HeartRateBpm><Value>159</Value></HeartRateBpm><SensorState>Present</SensorState></Trackpoint><Trackpoint><Time>2025-12-21T12:43:55.000Z</Time><HeartRateBpm><Value>159</Value></HeartRateBpm><SensorState>Present</SensorState></Trackpoint><Trackpoint><Time>2025-12-21T12:43:56.000Z</Time><HeartRateBpm><Value>159</Value></HeartRateBpm><SensorState>Present</SensorState></Trackpoint><Trackpoint><Time>2025-12-21T12:43:57.000Z</Time><HeartRateBpm><Value>159</Value></HeartRateBpm><SensorState>Present</SensorState></Trackpoint><Trackpoint><Time>2025-12-21T12:43:58.000Z</Time><HeartRateBpm><Value>159</Value></HeartRateBpm><SensorState>Present</SensorState></Trackpoint><Trackpoint><Time>2025-12-21T12:43:59.000Z</Time><HeartRateBpm><Value>159</Value></HeartRateBpm><SensorState>Present</SensorState></Trackpoint><Trackpoint><Time>2025-12-21T12:44:00.000Z</Time><HeartRateBpm><Value>159</Value></HeartRateBpm><SensorState>Present</SensorState></Trackpoint><Trackpoint><Time>2025-12-21T12:44:01.000Z</Time><HeartRateBpm><Value>159</Value></HeartRateBpm><SensorState>Present</SensorState></Trackpoint><Trackpoint><Time>2025-12-21T12:44:02.000Z</Time><HeartRateBpm><Value>159</Value></HeartRateBpm><SensorState>Present</SensorState></Trackpoint><Trackpoint><Time>2025-12-21T12:44:03.000Z</Time><HeartRateBpm><Value>159</Value></HeartRateBpm><SensorState>Present</SensorState></Trackpoint><Trackpoint><Time>2025-12-21T12:44:04.000Z</Time><HeartRateBpm><Value>160</Value></HeartRateBpm><SensorState>Present</SensorState></Trackpoint><Trackpoint><Time>2025-12-21T12:44:05.000Z</Time><HeartRateBpm><Value>160</Value></HeartRateBpm><SensorState>Present</SensorState></Trackpoint><Trackpoint><Time>2025-12-21T12:44:06.000Z</Time><HeartRateBpm><Value>160</Value></HeartRateBpm><SensorState>Present</SensorState></Trackpoint><Trackpoint><Time>2025-12-21T12:44:07.000Z</Time><HeartRateBpm><Value>160</Value></HeartRateBpm><SensorState>Present</SensorState></Trackpoint><Trackpoint><Time>2025-12-21T12:44:08.000Z</Time><HeartRateBpm><Value>160</Value></HeartRateBpm><SensorState>Present</SensorState></Trackpoint><Trackpoint><Time>2025-12-21T12:44:09.000Z</Time><HeartRateBpm><Value>161</Value></HeartRateBpm><SensorState>Present</SensorState></Trackpoint><Trackpoint><Time>2025-12-21T12:44:10.000Z</Time><HeartRateBpm><Value>162</Value></HeartRateBpm><SensorState>Present</SensorState></Trackpoint><Trackpoint><Time>2025-12-21T12:44:11.000Z</Time><HeartRateBpm><Value>162</Value></HeartRateBpm><SensorState>Present</SensorState></Trackpoint><Trackpoint><Time>2025-12-21T12:44:12.000Z</Time><HeartRateBpm><Value>163</Value></HeartRateBpm><SensorState>Present</SensorState></Trackpoint><Trackpoint><Time>2025-12-21T12:44:13.000Z</Time><HeartRateBpm><Value>163</Value></HeartRateBpm><SensorState>Present</SensorState></Trackpoint><Trackpoint><Time>2025-12-21T12:44:14.000Z</Time><HeartRateBpm><Value>163</Value></HeartRateBpm><SensorState>Present</SensorState></Trackpoint><Trackpoint><Time>2025-12-21T12:44:15.000Z</Time><HeartRateBpm><Value>163</Value></HeartRateBpm><SensorState>Present</SensorState></Trackpoint><Trackpoint><Time>2025-12-21T12:44:16.000Z</Time><HeartRateBpm><Value>164</Value></HeartRateBpm><SensorState>Present</SensorState></Trackpoint><Trackpoint><Time>2025-12-21T12:44:17.000Z</Time><HeartRateBpm><Value>164</Value></HeartRateBpm><SensorState>Present</SensorState></Trackpoint><Trackpoint><Time>2025-12-21T12:44:18.000Z</Time><HeartRateBpm><Value>164</Value></HeartRateBpm><SensorState>Present</SensorState></Trackpoint><Trackpoint><Time>2025-12-21T12:44:19.000Z</Time><HeartRateBpm><Value>164</Value></HeartRateBpm><SensorState>Present</SensorState></Trackpoint><Trackpoint><Time>2025-12-21T12:44:20.000Z</Time><HeartRateBpm><Value>164</Value></HeartRateBpm><SensorState>Present</SensorState></Trackpoint><Trackpoint><Time>2025-12-21T12:44:21.000Z</Time><HeartRateBpm><Value>164</Value></HeartRateBpm><SensorState>Present</SensorState></Trackpoint><Trackpoint><Time>2025-12-21T12:44:22.000Z</Time><HeartRateBpm><Value>164</Value></HeartRateBpm><SensorState>Present</SensorState></Trackpoint><Trackpoint><Time>2025-12-21T12:44:23.000Z</Time><HeartRateBpm><Value>164</Value></HeartRateBpm><SensorState>Present</SensorState></Trackpoint><Trackpoint><Time>2025-12-21T12:44:24.000Z</Time><HeartRateBpm><Value>164</Value></HeartRateBpm><SensorState>Present</SensorState></Trackpoint><Trackpoint><Time>2025-12-21T12:44:25.000Z</Time><HeartRateBpm><Value>164</Value></HeartRateBpm><SensorState>Present</SensorState></Trackpoint><Trackpoint><Time>2025-12-21T12:44:26.000Z</Time><HeartRateBpm><Value>164</Value></HeartRateBpm><SensorState>Present</SensorState></Trackpoint><Trackpoint><Time>2025-12-21T12:44:27.000Z</Time><HeartRateBpm><Value>164</Value></HeartRateBpm><SensorState>Present</SensorState></Trackpoint><Trackpoint><Time>2025-12-21T12:44:28.000Z</Time><HeartRateBpm><Value>164</Value></HeartRateBpm><SensorState>Present</SensorState></Trackpoint><Trackpoint><Time>2025-12-21T12:44:29.000Z</Time><HeartRateBpm><Value>164</Value></HeartRateBpm><SensorState>Present</SensorState></Trackpoint><Trackpoint><Time>2025-12-21T12:44:30.000Z</Time><HeartRateBpm><Value>163</Value></HeartRateBpm><SensorState>Present</SensorState></Trackpoint><Trackpoint><Time>2025-12-21T12:44:31.000Z</Time><HeartRateBpm><Value>163</Value></HeartRateBpm><SensorState>Present</SensorState></Trackpoint><Trackpoint><Time>2025-12-21T12:44:32.000Z</Time><HeartRateBpm><Value>163</Value></HeartRateBpm><SensorState>Present</SensorState></Trackpoint><Trackpoint><Time>2025-12-21T12:44:33.000Z</Time><HeartRateBpm><Value>162</Value></HeartRateBpm><SensorState>Present</SensorState></Trackpoint><Trackpoint><Time>2025-12-21T12:44:34.000Z</Time><HeartRateBpm><Value>162</Value></HeartRateBpm><SensorState>Present</SensorState></Trackpoint><Trackpoint><Time>2025-12-21T12:44:35.000Z</Time><HeartRateBpm><Value>162</Value></HeartRateBpm><SensorState>Present</SensorState></Trackpoint><Trackpoint><Time>2025-12-21T12:44:36.000Z</Time><HeartRateBpm><Value>162</Value></HeartRateBpm><SensorState>Present</SensorState></Trackpoint><Trackpoint><Time>2025-12-21T12:44:37.000Z</Time><HeartRateBpm><Value>161</Value></HeartRateBpm><SensorState>Present</SensorState></Trackpoint><Trackpoint><Time>2025-12-21T12:44:38.000Z</Time><HeartRateBpm><Value>160</Value></HeartRateBpm><SensorState>Present</SensorState></Trackpoint><Trackpoint><Time>2025-12-21T12:44:39.000Z</Time><HeartRateBpm><Value>161</Value></HeartRateBpm><SensorState>Present</SensorState></Trackpoint><Trackpoint><Time>2025-12-21T12:44:40.000Z</Time><HeartRateBpm><Value>160</Value></HeartRateBpm><SensorState>Present</SensorState></Trackpoint><Trackpoint><Time>2025-12-21T12:44:41.000Z</Time><HeartRateBpm><Value>160</Value></HeartRateBpm><SensorState>Present</SensorState></Trackpoint><Trackpoint><Time>2025-12-21T12:44:42.000Z</Time><HeartRateBpm><Value>160</Value></HeartRateBpm><SensorState>Present</SensorState></Trackpoint><Trackpoint><Time>2025-12-21T12:44:43.000Z</Time><HeartRateBpm><Value>159</Value></HeartRateBpm><SensorState>Present</SensorState></Trackpoint><Trackpoint><Time>2025-12-21T12:44:44.000Z</Time><HeartRateBpm><Value>159</Value></HeartRateBpm><SensorState>Present</SensorState></Trackpoint><Trackpoint><Time>2025-12-21T12:44:45.000Z</Time><HeartRateBpm><Value>158</Value></HeartRateBpm><SensorState>Present</SensorState></Trackpoint><Trackpoint><Time>2025-12-21T12:44:46.000Z</Time><HeartRateBpm><Value>158</Value></HeartRateBpm><SensorState>Present</SensorState></Trackpoint><Trackpoint><Time>2025-12-21T12:44:47.000Z</Time><HeartRateBpm><Value>158</Value></HeartRateBpm><SensorState>Present</SensorState></Trackpoint><Trackpoint><Time>2025-12-21T12:44:48.000Z</Time><HeartRateBpm><Value>157</Value></HeartRateBpm><SensorState>Present</SensorState></Trackpoint><Trackpoint><Time>2025-12-21T12:44:49.000Z</Time><HeartRateBpm><Value>157</Value></HeartRateBpm><SensorState>Present</SensorState></Trackpoint><Trackpoint><Time>2025-12-21T12:44:50.000Z</Time><HeartRateBpm><Value>157</Value></HeartRateBpm><SensorState>Present</SensorState></Trackpoint><Trackpoint><Time>2025-12-21T12:44:51.000Z</Time><HeartRateBpm><Value>157</Value></HeartRateBpm><SensorState>Present</SensorState></Trackpoint><Trackpoint><Time>2025-12-21T12:44:52.000Z</Time><HeartRateBpm><Value>157</Value></HeartRateBpm><SensorState>Present</SensorState></Trackpoint><Trackpoint><Time>2025-12-21T12:44:53.000Z</Time><HeartRateBpm><Value>156</Value></HeartRateBpm><SensorState>Present</SensorState></Trackpoint><Trackpoint><Time>2025-12-21T12:44:54.000Z</Time><HeartRateBpm><Value>156</Value></HeartRateBpm><SensorState>Present</SensorState></Trackpoint><Trackpoint><Time>2025-12-21T12:44:55.000Z</Time><HeartRateBpm><Value>156</Value></HeartRateBpm><SensorState>Present</SensorState></Trackpoint><Trackpoint><Time>2025-12-21T12:44:56.000Z</Time><HeartRateBpm><Value>155</Value></HeartRateBpm><SensorState>Present</SensorState></Trackpoint><Trackpoint><Time>2025-12-21T12:44:57.000Z</Time><HeartRateBpm><Value>155</Value></HeartRateBpm><SensorState>Present</SensorState></Trackpoint><Trackpoint><Time>2025-12-21T12:44:58.000Z</Time><HeartRateBpm><Value>154</Value></HeartRateBpm><SensorState>Present</SensorState></Trackpoint><Trackpoint><Time>2025-12-21T12:44:59.000Z</Time><HeartRateBpm><Value>154</Value></HeartRateBpm><SensorState>Present</SensorState></Trackpoint><Trackpoint><Time>2025-12-21T12:45:00.000Z</Time><HeartRateBpm><Value>154</Value></HeartRateBpm><SensorState>Present</SensorState></Trackpoint><Trackpoint><Time>2025-12-21T12:45:01.000Z</Time><HeartRateBpm><Value>154</Value></HeartRateBpm><SensorState>Present</SensorState></Trackpoint><Trackpoint><Time>2025-12-21T12:45:02.000Z</Time><HeartRateBpm><Value>154</Value></HeartRateBpm><SensorState>Present</SensorState></Trackpoint><Trackpoint><Time>2025-12-21T12:45:03.000Z</Time><HeartRateBpm><Value>154</Value></HeartRateBpm><SensorState>Present</SensorState></Trackpoint><Trackpoint><Time>2025-12-21T12:45:04.000Z</Time><HeartRateBpm><Value>154</Value></HeartRateBpm><SensorState>Present</SensorState></Trackpoint><Trackpoint><Time>2025-12-21T12:45:05.000Z</Time><HeartRateBpm><Value>153</Value></HeartRateBpm><SensorState>Present</SensorState></Trackpoint><Trackpoint><Time>2025-12-21T12:45:06.000Z</Time><HeartRateBpm><Value>153</Value></HeartRateBpm><SensorState>Present</SensorState></Trackpoint><Trackpoint><Time>2025-12-21T12:45:07.000Z</Time><HeartRateBpm><Value>153</Value></HeartRateBpm><SensorState>Present</SensorState></Trackpoint><Trackpoint><Time>2025-12-21T12:45:08.000Z</Time><HeartRateBpm><Value>154</Value></HeartRateBpm><SensorState>Present</SensorState></Trackpoint><Trackpoint><Time>2025-12-21T12:45:09.000Z</Time><HeartRateBpm><Value>153</Value></HeartRateBpm><SensorState>Present</SensorState></Trackpoint><Trackpoint><Time>2025-12-21T12:45:10.000Z</Time><HeartRateBpm><Value>153</Value></HeartRateBpm><SensorState>Present</SensorState></Trackpoint><Trackpoint><Time>2025-12-21T12:45:11.000Z</Time><HeartRateBpm><Value>153</Value></HeartRateBpm><SensorState>Present</SensorState></Trackpoint><Trackpoint><Time>2025-12-21T12:45:12.000Z</Time><HeartRateBpm><Value>154</Value></HeartRateBpm><SensorState>Present</SensorState></Trackpoint><Trackpoint><Time>2025-12-21T12:45:13.000Z</Time><HeartRateBpm><Value>154</Value></HeartRateBpm><SensorState>Present</SensorState></Trackpoint><Trackpoint><Time>2025-12-21T12:45:14.000Z</Time><HeartRateBpm><Value>155</Value></HeartRateBpm><SensorState>Present</SensorState></Trackpoint><Trackpoint><Time>2025-12-21T12:45:15.000Z</Time><HeartRateBpm><Value>155</Value></HeartRateBpm><SensorState>Present</SensorState></Trackpoint><Trackpoint><Time>2025-12-21T12:45:16.000Z</Time><HeartRateBpm><Value>156</Value></HeartRateBpm><SensorState>Present</SensorState></Trackpoint><Trackpoint><Time>2025-12-21T12:45:17.000Z</Time><HeartRateBpm><Value>156</Value></HeartRateBpm><SensorState>Present</SensorState></Trackpoint><Trackpoint><Time>2025-12-21T12:45:18.000Z</Time><HeartRateBpm><Value>156</Value></HeartRateBpm><SensorState>Present</SensorState></Trackpoint><Trackpoint><Time>2025-12-21T12:45:19.000Z</Time><HeartRateBpm><Value>157</Value></HeartRateBpm><SensorState>Present</SensorState></Trackpoint><Trackpoint><Time>2025-12-21T12:45:20.000Z</Time><HeartRateBpm><Value>158</Value></HeartRateBpm><SensorState>Present</SensorState></Trackpoint><Trackpoint><Time>2025-12-21T12:45:21.000Z</Time><HeartRateBpm><Value>158</Value></HeartRateBpm><SensorState>Present</SensorState></Trackpoint><Trackpoint><Time>2025-12-21T12:45:22.000Z</Time><HeartRateBpm><Value>159</Value></HeartRateBpm><SensorState>Present</SensorState></Trackpoint><Trackpoint><Time>2025-12-21T12:45:23.000Z</Time><HeartRateBpm><Value>159</Value></HeartRateBpm><SensorState>Present</SensorState></Trackpoint><Trackpoint><Time>2025-12-21T12:45:24.000Z</Time><HeartRateBpm><Value>160</Value></HeartRateBpm><SensorState>Present</SensorState></Trackpoint><Trackpoint><Time>2025-12-21T12:45:25.000Z</Time><HeartRateBpm><Value>160</Value></HeartRateBpm><SensorState>Present</SensorState></Trackpoint><Trackpoint><Time>2025-12-21T12:45:26.000Z</Time><HeartRateBpm><Value>160</Value></HeartRateBpm><SensorState>Present</SensorState></Trackpoint><Trackpoint><Time>2025-12-21T12:45:27.000Z</Time><HeartRateBpm><Value>160</Value></HeartRateBpm><SensorState>Present</SensorState></Trackpoint><Trackpoint><Time>2025-12-21T12:45:28.000Z</Time><HeartRateBpm><Value>160</Value></HeartRateBpm><SensorState>Present</SensorState></Trackpoint><Trackpoint><Time>2025-12-21T12:45:29.000Z</Time><HeartRateBpm><Value>160</Value></HeartRateBpm><SensorState>Present</SensorState></Trackpoint><Trackpoint><Time>2025-12-21T12:45:30.000Z</Time><HeartRateBpm><Value>160</Value></HeartRateBpm><SensorState>Present</SensorState></Trackpoint><Trackpoint><Time>2025-12-21T12:45:31.000Z</Time><HeartRateBpm><Value>160</Value></HeartRateBpm><SensorState>Present</SensorState></Trackpoint><Trackpoint><Time>2025-12-21T12:45:32.000Z</Time><HeartRateBpm><Value>160</Value></HeartRateBpm><SensorState>Present</SensorState></Trackpoint><Trackpoint><Time>2025-12-21T12:45:33.000Z</Time><HeartRateBpm><Value>161</Value></HeartRateBpm><SensorState>Present</SensorState></Trackpoint><Trackpoint><Time>2025-12-21T12:45:34.000Z</Time><HeartRateBpm><Value>162</Value></HeartRateBpm><SensorState>Present</SensorState></Trackpoint><Trackpoint><Time>2025-12-21T12:45:35.000Z</Time><HeartRateBpm><Value>163</Value></HeartRateBpm><SensorState>Present</SensorState></Trackpoint><Trackpoint><Time>2025-12-21T12:45:36.000Z</Time><HeartRateBpm><Value>163</Value></HeartRateBpm><SensorState>Present</SensorState></Trackpoint><Trackpoint><Time>2025-12-21T12:45:37.000Z</Time><HeartRateBpm><Value>163</Value></HeartRateBpm><SensorState>Present</SensorState></Trackpoint><Trackpoint><Time>2025-12-21T12:45:38.000Z</Time><HeartRateBpm><Value>164</Value></HeartRateBpm><SensorState>Present</SensorState></Trackpoint><Trackpoint><Time>2025-12-21T12:45:39.000Z</Time><HeartRateBpm><Value>164</Value></HeartRateBpm><SensorState>Present</SensorState></Trackpoint><Trackpoint><Time>2025-12-21T12:45:40.000Z</Time><HeartRateBpm><Value>165</Value></HeartRateBpm><SensorState>Present</SensorState></Trackpoint><Trackpoint><Time>2025-12-21T12:45:41.000Z</Time><HeartRateBpm><Value>165</Value></HeartRateBpm><SensorState>Present</SensorState></Trackpoint><Trackpoint><Time>2025-12-21T12:45:42.000Z</Time><HeartRateBpm><Value>167</Value></HeartRateBpm><SensorState>Present</SensorState></Trackpoint><Trackpoint><Time>2025-12-21T12:45:43.000Z</Time><HeartRateBpm><Value>168</Value></HeartRateBpm><SensorState>Present</SensorState></Trackpoint><Trackpoint><Time>2025-12-21T12:45:44.000Z</Time><HeartRateBpm><Value>167</Value></HeartRateBpm><SensorState>Present</SensorState></Trackpoint><Trackpoint><Time>2025-12-21T12:45:45.000Z</Time><HeartRateBpm><Value>166</Value></HeartRateBpm><SensorState>Present</SensorState></Trackpoint><Trackpoint><Time>2025-12-21T12:45:46.000Z</Time><HeartRateBpm><Value>166</Value></HeartRateBpm><SensorState>Present</SensorState></Trackpoint><Trackpoint><Time>2025-12-21T12:45:47.000Z</Time><HeartRateBpm><Value>166</Value></HeartRateBpm><SensorState>Present</SensorState></Trackpoint><Trackpoint><Time>2025-12-21T12:45:48.000Z</Time><HeartRateBpm><Value>167</Value></HeartRateBpm><SensorState>Present</SensorState></Trackpoint><Trackpoint><Time>2025-12-21T12:45:49.000Z</Time><HeartRateBpm><Value>167</Value></HeartRateBpm><SensorState>Present</SensorState></Trackpoint><Trackpoint><Time>2025-12-21T12:45:50.000Z</Time><HeartRateBpm><Value>167</Value></HeartRateBpm><SensorState>Present</SensorState></Trackpoint><Trackpoint><Time>2025-12-21T12:45:51.000Z</Time><HeartRateBpm><Value>167</Value></HeartRateBpm><SensorState>Present</SensorState></Trackpoint><Trackpoint><Time>2025-12-21T12:45:52.000Z</Time><HeartRateBpm><Value>167</Value></HeartRateBpm><SensorState>Present</SensorState></Trackpoint><Trackpoint><Time>2025-12-21T12:45:53.000Z</Time><HeartRateBpm><Value>167</Value></HeartRateBpm><SensorState>Present</SensorState></Trackpoint><Trackpoint><Time>2025-12-21T12:45:54.000Z</Time><HeartRateBpm><Value>168</Value></HeartRateBpm><SensorState>Present</SensorState></Trackpoint><Trackpoint><Time>2025-12-21T12:45:55.000Z</Time><HeartRateBpm><Value>168</Value></HeartRateBpm><SensorState>Present</SensorState></Trackpoint><Trackpoint><Time>2025-12-21T12:45:56.000Z</Time><HeartRateBpm><Value>168</Value></HeartRateBpm><SensorState>Present</SensorState></Trackpoint><Trackpoint><Time>2025-12-21T12:45:57.000Z</Time><HeartRateBpm><Value>168</Value></HeartRateBpm><SensorState>Present</SensorState></Trackpoint><Trackpoint><Time>2025-12-21T12:45:58.000Z</Time><HeartRateBpm><Value>168</Value></HeartRateBpm><SensorState>Present</SensorState></Trackpoint><Trackpoint><Time>2025-12-21T12:45:59.000Z</Time><HeartRateBpm><Value>168</Value></HeartRateBpm><SensorState>Present</SensorState></Trackpoint><Trackpoint><Time>2025-12-21T12:46:00.000Z</Time><HeartRateBpm><Value>168</Value></HeartRateBpm><SensorState>Present</SensorState></Trackpoint><Trackpoint><Time>2025-12-21T12:46:01.000Z</Time><HeartRateBpm><Value>168</Value></HeartRateBpm><SensorState>Present</SensorState></Trackpoint><Trackpoint><Time>2025-12-21T12:46:02.000Z</Time><HeartRateBpm><Value>168</Value></HeartRateBpm><SensorState>Present</SensorState></Trackpoint><Trackpoint><Time>2025-12-21T12:46:03.000Z</Time><HeartRateBpm><Value>167</Value></HeartRateBpm><SensorState>Present</SensorState></Trackpoint><Trackpoint><Time>2025-12-21T12:46:04.000Z</Time><HeartRateBpm><Value>167</Value></HeartRateBpm><SensorState>Present</SensorState></Trackpoint><Trackpoint><Time>2025-12-21T12:46:05.000Z</Time><HeartRateBpm><Value>167</Value></HeartRateBpm><SensorState>Present</SensorState></Trackpoint><Trackpoint><Time>2025-12-21T12:46:06.000Z</Time><HeartRateBpm><Value>167</Value></HeartRateBpm><SensorState>Present</SensorState></Trackpoint><Trackpoint><Time>2025-12-21T12:46:07.000Z</Time><HeartRateBpm><Value>167</Value></HeartRateBpm><SensorState>Present</SensorState></Trackpoint><Trackpoint><Time>2025-12-21T12:46:08.000Z</Time><HeartRateBpm><Value>166</Value></HeartRateBpm><SensorState>Present</SensorState></Trackpoint><Trackpoint><Time>2025-12-21T12:46:09.000Z</Time><HeartRateBpm><Value>165</Value></HeartRateBpm><SensorState>Present</SensorState></Trackpoint><Trackpoint><Time>2025-12-21T12:46:10.000Z</Time><HeartRateBpm><Value>165</Value></HeartRateBpm><SensorState>Present</SensorState></Trackpoint><Trackpoint><Time>2025-12-21T12:46:11.000Z</Time><HeartRateBpm><Value>165</Value></HeartRateBpm><SensorState>Present</SensorState></Trackpoint><Trackpoint><Time>2025-12-21T12:46:12.000Z</Time><HeartRateBpm><Value>164</Value></HeartRateBpm><SensorState>Present</SensorState></Trackpoint><Trackpoint><Time>2025-12-21T12:46:13.000Z</Time><HeartRateBpm><Value>164</Value></HeartRateBpm><SensorState>Present</SensorState></Trackpoint><Trackpoint><Time>2025-12-21T12:46:14.000Z</Time><HeartRateBpm><Value>164</Value></HeartRateBpm><SensorState>Present</SensorState></Trackpoint><Trackpoint><Time>2025-12-21T12:46:15.000Z</Time><HeartRateBpm><Value>164</Value></HeartRateBpm><SensorState>Present</SensorState></Trackpoint><Trackpoint><Time>2025-12-21T12:46:16.000Z</Time><HeartRateBpm><Value>164</Value></HeartRateBpm><SensorState>Present</SensorState></Trackpoint><Trackpoint><Time>2025-12-21T12:46:17.000Z</Time><HeartRateBpm><Value>164</Value></HeartRateBpm><SensorState>Present</SensorState></Trackpoint><Trackpoint><Time>2025-12-21T12:46:18.000Z</Time><HeartRateBpm><Value>163</Value></HeartRateBpm><SensorState>Present</SensorState></Trackpoint><Trackpoint><Time>2025-12-21T12:46:19.000Z</Time><HeartRateBpm><Value>163</Value></HeartRateBpm><SensorState>Present</SensorState></Trackpoint><Trackpoint><Time>2025-12-21T12:46:20.000Z</Time><HeartRateBpm><Value>163</Value></HeartRateBpm><SensorState>Present</SensorState></Trackpoint><Trackpoint><Time>2025-12-21T12:46:21.000Z</Time><HeartRateBpm><Value>163</Value></HeartRateBpm><SensorState>Present</SensorState></Trackpoint><Trackpoint><Time>2025-12-21T12:46:22.000Z</Time><HeartRateBpm><Value>163</Value></HeartRateBpm><SensorState>Present</SensorState></Trackpoint><Trackpoint><Time>2025-12-21T12:46:23.000Z</Time><HeartRateBpm><Value>162</Value></HeartRateBpm><SensorState>Present</SensorState></Trackpoint><Trackpoint><Time>2025-12-21T12:46:24.000Z</Time><HeartRateBpm><Value>162</Value></HeartRateBpm><SensorState>Present</SensorState></Trackpoint><Trackpoint><Time>2025-12-21T12:46:25.000Z</Time><HeartRateBpm><Value>162</Value></HeartRateBpm><SensorState>Present</SensorState></Trackpoint><Trackpoint><Time>2025-12-21T12:46:26.000Z</Time><HeartRateBpm><Value>162</Value></HeartRateBpm><SensorState>Present</SensorState></Trackpoint><Trackpoint><Time>2025-12-21T12:46:27.000Z</Time><HeartRateBpm><Value>162</Value></HeartRateBpm><SensorState>Present</SensorState></Trackpoint><Trackpoint><Time>2025-12-21T12:46:28.000Z</Time><HeartRateBpm><Value>161</Value></HeartRateBpm><SensorState>Present</SensorState></Trackpoint><Trackpoint><Time>2025-12-21T12:46:29.000Z</Time><HeartRateBpm><Value>161</Value></HeartRateBpm><SensorState>Present</SensorState></Trackpoint><Trackpoint><Time>2025-12-21T12:46:30.000Z</Time><HeartRateBpm><Value>161</Value></HeartRateBpm><SensorState>Present</SensorState></Trackpoint><Trackpoint><Time>2025-12-21T12:46:31.000Z</Time><HeartRateBpm><Value>162</Value></HeartRateBpm><SensorState>Present</SensorState></Trackpoint><Trackpoint><Time>2025-12-21T12:46:32.000Z</Time><HeartRateBpm><Value>161</Value></HeartRateBpm><SensorState>Present</SensorState></Trackpoint><Trackpoint><Time>2025-12-21T12:46:33.000Z</Time><HeartRateBpm><Value>160</Value></HeartRateBpm><SensorState>Present</SensorState></Trackpoint><Trackpoint><Time>2025-12-21T12:46:34.000Z</Time><HeartRateBpm><Value>160</Value></HeartRateBpm><SensorState>Present</SensorState></Trackpoint><Trackpoint><Time>2025-12-21T12:46:35.000Z</Time><HeartRateBpm><Value>159</Value></HeartRateBpm><SensorState>Present</SensorState></Trackpoint><Trackpoint><Time>2025-12-21T12:46:36.000Z</Time><HeartRateBpm><Value>158</Value></HeartRateBpm><SensorState>Present</SensorState></Trackpoint><Trackpoint><Time>2025-12-21T12:46:37.000Z</Time><HeartRateBpm><Value>158</Value></HeartRateBpm><SensorState>Present</SensorState></Trackpoint><Trackpoint><Time>2025-12-21T12:46:38.000Z</Time><HeartRateBpm><Value>158</Value></HeartRateBpm><SensorState>Present</SensorState></Trackpoint><Trackpoint><Time>2025-12-21T12:46:39.000Z</Time><HeartRateBpm><Value>158</Value></HeartRateBpm><SensorState>Present</SensorState></Trackpoint><Trackpoint><Time>2025-12-21T12:46:40.000Z</Time><HeartRateBpm><Value>157</Value></HeartRateBpm><SensorState>Present</SensorState></Trackpoint><Trackpoint><Time>2025-12-21T12:46:41.000Z</Time><HeartRateBpm><Value>156</Value></HeartRateBpm><SensorState>Present</SensorState></Trackpoint><Trackpoint><Time>2025-12-21T12:46:42.000Z</Time><HeartRateBpm><Value>156</Value></HeartRateBpm><SensorState>Present</SensorState></Trackpoint><Trackpoint><Time>2025-12-21T12:46:43.000Z</Time><HeartRateBpm><Value>155</Value></HeartRateBpm><SensorState>Present</SensorState></Trackpoint><Trackpoint><Time>2025-12-21T12:46:44.000Z</Time><HeartRateBpm><Value>154</Value></HeartRateBpm><SensorState>Present</SensorState></Trackpoint><Trackpoint><Time>2025-12-21T12:46:45.000Z</Time><HeartRateBpm><Value>154</Value></HeartRateBpm><SensorState>Present</SensorState></Trackpoint><Trackpoint><Time>2025-12-21T12:46:46.000Z</Time><HeartRateBpm><Value>153</Value></HeartRateBpm><SensorState>Present</SensorState></Trackpoint><Trackpoint><Time>2025-12-21T12:46:47.000Z</Time><HeartRateBpm><Value>153</Value></HeartRateBpm><SensorState>Present</SensorState></Trackpoint><Trackpoint><Time>2025-12-21T12:46:48.000Z</Time><HeartRateBpm><Value>153</Value></HeartRateBpm><SensorState>Present</SensorState></Trackpoint><Trackpoint><Time>2025-12-21T12:46:49.000Z</Time><HeartRateBpm><Value>153</Value></HeartRateBpm><SensorState>Present</SensorState></Trackpoint><Trackpoint><Time>2025-12-21T12:46:50.000Z</Time><HeartRateBpm><Value>153</Value></HeartRateBpm><SensorState>Present</SensorState></Trackpoint><Trackpoint><Time>2025-12-21T12:46:51.000Z</Time><HeartRateBpm><Value>152</Value></HeartRateBpm><SensorState>Present</SensorState></Trackpoint><Trackpoint><Time>2025-12-21T12:46:52.000Z</Time><HeartRateBpm><Value>152</Value></HeartRateBpm><SensorState>Present</SensorState></Trackpoint><Trackpoint><Time>2025-12-21T12:46:53.000Z</Time><HeartRateBpm><Value>152</Value></HeartRateBpm><SensorState>Present</SensorState></Trackpoint><Trackpoint><Time>2025-12-21T12:46:54.000Z</Time><HeartRateBpm><Value>152</Value></HeartRateBpm><SensorState>Present</SensorState></Trackpoint><Trackpoint><Time>2025-12-21T12:46:55.000Z</Time><HeartRateBpm><Value>152</Value></HeartRateBpm><SensorState>Present</SensorState></Trackpoint><Trackpoint><Time>2025-12-21T12:46:56.000Z</Time><HeartRateBpm><Value>153</Value></HeartRateBpm><SensorState>Present</SensorState></Trackpoint><Trackpoint><Time>2025-12-21T12:46:57.000Z</Time><HeartRateBpm><Value>153</Value></HeartRateBpm><SensorState>Present</SensorState></Trackpoint><Trackpoint><Time>2025-12-21T12:46:58.000Z</Time><HeartRateBpm><Value>153</Value></HeartRateBpm><SensorState>Present</SensorState></Trackpoint><Trackpoint><Time>2025-12-21T12:46:59.000Z</Time><HeartRateBpm><Value>154</Value></HeartRateBpm><SensorState>Present</SensorState></Trackpoint><Trackpoint><Time>2025-12-21T12:47:00.000Z</Time><HeartRateBpm><Value>156</Value></HeartRateBpm><SensorState>Present</SensorState></Trackpoint><Trackpoint><Time>2025-12-21T12:47:01.000Z</Time><HeartRateBpm><Value>157</Value></HeartRateBpm><SensorState>Present</SensorState></Trackpoint><Trackpoint><Time>2025-12-21T12:47:02.000Z</Time><HeartRateBpm><Value>158</Value></HeartRateBpm><SensorState>Present</SensorState></Trackpoint><Trackpoint><Time>2025-12-21T12:47:03.000Z</Time><HeartRateBpm><Value>159</Value></HeartRateBpm><SensorState>Present</SensorState></Trackpoint><Trackpoint><Time>2025-12-21T12:47:04.000Z</Time><HeartRateBpm><Value>160</Value></HeartRateBpm><SensorState>Present</SensorState></Trackpoint><Trackpoint><Time>2025-12-21T12:47:05.000Z</Time><HeartRateBpm><Value>160</Value></HeartRateBpm><SensorState>Present</SensorState></Trackpoint><Trackpoint><Time>2025-12-21T12:47:06.000Z</Time><HeartRateBpm><Value>162</Value></HeartRateBpm><SensorState>Present</SensorState></Trackpoint><Trackpoint><Time>2025-12-21T12:47:07.000Z</Time><HeartRateBpm><Value>163</Value></HeartRateBpm><SensorState>Present</SensorState></Trackpoint><Trackpoint><Time>2025-12-21T12:47:08.000Z</Time><HeartRateBpm><Value>164</Value></HeartRateBpm><SensorState>Present</SensorState></Trackpoint><Trackpoint><Time>2025-12-21T12:47:09.000Z</Time><HeartRateBpm><Value>164</Value></HeartRateBpm><SensorState>Present</SensorState></Trackpoint><Trackpoint><Time>2025-12-21T12:47:10.000Z</Time><HeartRateBpm><Value>166</Value></HeartRateBpm><SensorState>Present</SensorState></Trackpoint><Trackpoint><Time>2025-12-21T12:47:11.000Z</Time><HeartRateBpm><Value>166</Value></HeartRateBpm><SensorState>Present</SensorState></Trackpoint><Trackpoint><Time>2025-12-21T12:47:12.000Z</Time><HeartRateBpm><Value>167</Value></HeartRateBpm><SensorState>Present</SensorState></Trackpoint><Trackpoint><Time>2025-12-21T12:47:13.000Z</Time><HeartRateBpm><Value>167</Value></HeartRateBpm><SensorState>Present</SensorState></Trackpoint><Trackpoint><Time>2025-12-21T12:47:14.000Z</Time><HeartRateBpm><Value>168</Value></HeartRateBpm><SensorState>Present</SensorState></Trackpoint><Trackpoint><Time>2025-12-21T12:47:15.000Z</Time><HeartRateBpm><Value>168</Value></HeartRateBpm><SensorState>Present</SensorState></Trackpoint><Trackpoint><Time>2025-12-21T12:47:16.000Z</Time><HeartRateBpm><Value>169</Value></HeartRateBpm><SensorState>Present</SensorState></Trackpoint><Trackpoint><Time>2025-12-21T12:47:17.000Z</Time><HeartRateBpm><Value>169</Value></HeartRateBpm><SensorState>Present</SensorState></Trackpoint><Trackpoint><Time>2025-12-21T12:47:18.000Z</Time><HeartRateBpm><Value>170</Value></HeartRateBpm><SensorState>Present</SensorState></Trackpoint><Trackpoint><Time>2025-12-21T12:47:19.000Z</Time><HeartRateBpm><Value>170</Value></HeartRateBpm><SensorState>Present</SensorState></Trackpoint><Trackpoint><Time>2025-12-21T12:47:20.000Z</Time><HeartRateBpm><Value>170</Value></HeartRateBpm><SensorState>Present</SensorState></Trackpoint><Trackpoint><Time>2025-12-21T12:47:21.000Z</Time><HeartRateBpm><Value>171</Value></HeartRateBpm><SensorState>Present</SensorState></Trackpoint><Trackpoint><Time>2025-12-21T12:47:22.000Z</Time><HeartRateBpm><Value>171</Value></HeartRateBpm><SensorState>Present</SensorState></Trackpoint><Trackpoint><Time>2025-12-21T12:47:23.000Z</Time><HeartRateBpm><Value>172</Value></HeartRateBpm><SensorState>Present</SensorState></Trackpoint><Trackpoint><Time>2025-12-21T12:47:24.000Z</Time><HeartRateBpm><Value>171</Value></HeartRateBpm><SensorState>Present</SensorState></Trackpoint><Trackpoint><Time>2025-12-21T12:47:25.000Z</Time><HeartRateBpm><Value>171</Value></HeartRateBpm><SensorState>Present</SensorState></Trackpoint><Trackpoint><Time>2025-12-21T12:47:26.000Z</Time><HeartRateBpm><Value>171</Value></HeartRateBpm><SensorState>Present</SensorState></Trackpoint><Trackpoint><Time>2025-12-21T12:47:27.000Z</Time><HeartRateBpm><Value>172</Value></HeartRateBpm><SensorState>Present</SensorState></Trackpoint><Trackpoint><Time>2025-12-21T12:47:28.000Z</Time><HeartRateBpm><Value>172</Value></HeartRateBpm><SensorState>Present</SensorState></Trackpoint><Trackpoint><Time>2025-12-21T12:47:29.000Z</Time><HeartRateBpm><Value>172</Value></HeartRateBpm><SensorState>Present</SensorState></Trackpoint><Trackpoint><Time>2025-12-21T12:47:30.000Z</Time><HeartRateBpm><Value>172</Value></HeartRateBpm><SensorState>Present</SensorState></Trackpoint><Trackpoint><Time>2025-12-21T12:47:31.000Z</Time><HeartRateBpm><Value>173</Value></HeartRateBpm><SensorState>Present</SensorState></Trackpoint><Trackpoint><Time>2025-12-21T12:47:32.000Z</Time><HeartRateBpm><Value>173</Value></HeartRateBpm><SensorState>Present</SensorState></Trackpoint><Trackpoint><Time>2025-12-21T12:47:33.000Z</Time><HeartRateBpm><Value>172</Value></HeartRateBpm><SensorState>Present</SensorState></Trackpoint><Trackpoint><Time>2025-12-21T12:47:34.000Z</Time><HeartRateBpm><Value>172</Value></HeartRateBpm><SensorState>Present</SensorState></Trackpoint><Trackpoint><Time>2025-12-21T12:47:35.000Z</Time><HeartRateBpm><Value>172</Value></HeartRateBpm><SensorState>Present</SensorState></Trackpoint><Trackpoint><Time>2025-12-21T12:47:36.000Z</Time><HeartRateBpm><Value>172</Value></HeartRateBpm><SensorState>Present</SensorState></Trackpoint><Trackpoint><Time>2025-12-21T12:47:37.000Z</Time><HeartRateBpm><Value>172</Value></HeartRateBpm><SensorState>Present</SensorState></Trackpoint><Trackpoint><Time>2025-12-21T12:47:38.000Z</Time><HeartRateBpm><Value>173</Value></HeartRateBpm><SensorState>Present</SensorState></Trackpoint><Trackpoint><Time>2025-12-21T12:47:39.000Z</Time><HeartRateBpm><Value>172</Value></HeartRateBpm><SensorState>Present</SensorState></Trackpoint><Trackpoint><Time>2025-12-21T12:47:40.000Z</Time><HeartRateBpm><Value>173</Value></HeartRateBpm><SensorState>Present</SensorState></Trackpoint><Trackpoint><Time>2025-12-21T12:47:41.000Z</Time><HeartRateBpm><Value>173</Value></HeartRateBpm><SensorState>Present</SensorState></Trackpoint><Trackpoint><Time>2025-12-21T12:47:42.000Z</Time><HeartRateBpm><Value>172</Value></HeartRateBpm><SensorState>Present</SensorState></Trackpoint><Trackpoint><Time>2025-12-21T12:47:43.000Z</Time><HeartRateBpm><Value>172</Value></HeartRateBpm><SensorState>Present</SensorState></Trackpoint><Trackpoint><Time>2025-12-21T12:47:44.000Z</Time><HeartRateBpm><Value>172</Value></HeartRateBpm><SensorState>Present</SensorState></Trackpoint><Trackpoint><Time>2025-12-21T12:47:45.000Z</Time><HeartRateBpm><Value>172</Value></HeartRateBpm><SensorState>Present</SensorState></Trackpoint><Trackpoint><Time>2025-12-21T12:47:46.000Z</Time><HeartRateBpm><Value>172</Value></HeartRateBpm><SensorState>Present</SensorState></Trackpoint><Trackpoint><Time>2025-12-21T12:47:47.000Z</Time><HeartRateBpm><Value>172</Value></HeartRateBpm><SensorState>Present</SensorState></Trackpoint><Trackpoint><Time>2025-12-21T12:47:48.000Z</Time><HeartRateBpm><Value>171</Value></HeartRateBpm><SensorState>Present</SensorState></Trackpoint><Trackpoint><Time>2025-12-21T12:47:49.000Z</Time><HeartRateBpm><Value>171</Value></HeartRateBpm><SensorState>Present</SensorState></Trackpoint><Trackpoint><Time>2025-12-21T12:47:50.000Z</Time><HeartRateBpm><Value>171</Value></HeartRateBpm><SensorState>Present</SensorState></Trackpoint><Trackpoint><Time>2025-12-21T12:47:51.000Z</Time><HeartRateBpm><Value>171</Value></HeartRateBpm><SensorState>Present</SensorState></Trackpoint><Trackpoint><Time>2025-12-21T12:47:52.000Z</Time><HeartRateBpm><Value>171</Value></HeartRateBpm><SensorState>Present</SensorState></Trackpoint><Trackpoint><Time>2025-12-21T12:47:53.000Z</Time><HeartRateBpm><Value>171</Value></HeartRateBpm><SensorState>Present</SensorState></Trackpoint><Trackpoint><Time>2025-12-21T12:47:54.000Z</Time><HeartRateBpm><Value>171</Value></HeartRateBpm><SensorState>Present</SensorState></Trackpoint><Trackpoint><Time>2025-12-21T12:47:55.000Z</Time><HeartRateBpm><Value>170</Value></HeartRateBpm><SensorState>Present</SensorState></Trackpoint><Trackpoint><Time>2025-12-21T12:47:56.000Z</Time><HeartRateBpm><Value>171</Value></HeartRateBpm><SensorState>Present</SensorState></Trackpoint><Trackpoint><Time>2025-12-21T12:47:57.000Z</Time><HeartRateBpm><Value>170</Value></HeartRateBpm><SensorState>Present</SensorState></Trackpoint><Trackpoint><Time>2025-12-21T12:47:58.000Z</Time><HeartRateBpm><Value>170</Value></HeartRateBpm><SensorState>Present</SensorState></Trackpoint><Trackpoint><Time>2025-12-21T12:47:59.000Z</Time><HeartRateBpm><Value>169</Value></HeartRateBpm><SensorState>Present</SensorState></Trackpoint><Trackpoint><Time>2025-12-21T12:48:00.000Z</Time><HeartRateBpm><Value>169</Value></HeartRateBpm><SensorState>Present</SensorState></Trackpoint><Trackpoint><Time>2025-12-21T12:48:01.000Z</Time><HeartRateBpm><Value>169</Value></HeartRateBpm><SensorState>Present</SensorState></Trackpoint><Trackpoint><Time>2025-12-21T12:48:02.000Z</Time><HeartRateBpm><Value>169</Value></HeartRateBpm><SensorState>Present</SensorState></Trackpoint><Trackpoint><Time>2025-12-21T12:48:03.000Z</Time><HeartRateBpm><Value>168</Value></HeartRateBpm><SensorState>Present</SensorState></Trackpoint><Trackpoint><Time>2025-12-21T12:48:04.000Z</Time><HeartRateBpm><Value>168</Value></HeartRateBpm><SensorState>Present</SensorState></Trackpoint><Trackpoint><Time>2025-12-21T12:48:05.000Z</Time><HeartRateBpm><Value>168</Value></HeartRateBpm><SensorState>Present</SensorState></Trackpoint><Trackpoint><Time>2025-12-21T12:48:06.000Z</Time><HeartRateBpm><Value>168</Value></HeartRateBpm><SensorState>Present</SensorState></Trackpoint><Trackpoint><Time>2025-12-21T12:48:07.000Z</Time><HeartRateBpm><Value>167</Value></HeartRateBpm><SensorState>Present</SensorState></Trackpoint><Trackpoint><Time>2025-12-21T12:48:08.000Z</Time><HeartRateBpm><Value>167</Value></HeartRateBpm><SensorState>Present</SensorState></Trackpoint><Trackpoint><Time>2025-12-21T12:48:09.000Z</Time><HeartRateBpm><Value>166</Value></HeartRateBpm><SensorState>Present</SensorState></Trackpoint><Trackpoint><Time>2025-12-21T12:48:10.000Z</Time><HeartRateBpm><Value>166</Value></HeartRateBpm><SensorState>Present</SensorState></Trackpoint><Trackpoint><Time>2025-12-21T12:48:11.000Z</Time><HeartRateBpm><Value>165</Value></HeartRateBpm><SensorState>Present</SensorState></Trackpoint><Trackpoint><Time>2025-12-21T12:48:12.000Z</Time><HeartRateBpm><Value>164</Value></HeartRateBpm><SensorState>Present</SensorState></Trackpoint><Trackpoint><Time>2025-12-21T12:48:13.000Z</Time><HeartRateBpm><Value>163</Value></HeartRateBpm><SensorState>Present</SensorState></Trackpoint><Trackpoint><Time>2025-12-21T12:48:14.000Z</Time><HeartRateBpm><Value>162</Value></HeartRateBpm><SensorState>Present</SensorState></Trackpoint><Trackpoint><Time>2025-12-21T12:48:15.000Z</Time><HeartRateBpm><Value>160</Value></HeartRateBpm><SensorState>Present</SensorState></Trackpoint><Trackpoint><Time>2025-12-21T12:48:16.000Z</Time><HeartRateBpm><Value>159</Value></HeartRateBpm><SensorState>Present</SensorState></Trackpoint><Trackpoint><Time>2025-12-21T12:48:17.000Z</Time><HeartRateBpm><Value>156</Value></HeartRateBpm><SensorState>Present</SensorState></Trackpoint><Trackpoint><Time>2025-12-21T12:48:18.000Z</Time><HeartRateBpm><Value>155</Value></HeartRateBpm><SensorState>Present</SensorState></Trackpoint><Trackpoint><Time>2025-12-21T12:48:19.000Z</Time><HeartRateBpm><Value>154</Value></HeartRateBpm><SensorState>Present</SensorState></Trackpoint><Trackpoint><Time>2025-12-21T12:48:20.000Z</Time><HeartRateBpm><Value>154</Value></HeartRateBpm><SensorState>Present</SensorState></Trackpoint><Trackpoint><Time>2025-12-21T12:48:21.000Z</Time><HeartRateBpm><Value>153</Value></HeartRateBpm><SensorState>Present</SensorState></Trackpoint><Trackpoint><Time>2025-12-21T12:48:22.000Z</Time><HeartRateBpm><Value>152</Value></HeartRateBpm><SensorState>Present</SensorState></Trackpoint><Trackpoint><Time>2025-12-21T12:48:23.000Z</Time><HeartRateBpm><Value>152</Value></HeartRateBpm><SensorState>Present</SensorState></Trackpoint><Trackpoint><Time>2025-12-21T12:48:24.000Z</Time><HeartRateBpm><Value>151</Value></HeartRateBpm><SensorState>Present</SensorState></Trackpoint><Trackpoint><Time>2025-12-21T12:48:25.000Z</Time><HeartRateBpm><Value>150</Value></HeartRateBpm><SensorState>Present</SensorState></Trackpoint><Trackpoint><Time>2025-12-21T12:48:26.000Z</Time><HeartRateBpm><Value>149</Value></HeartRateBpm><SensorState>Present</SensorState></Trackpoint><Trackpoint><Time>2025-12-21T12:48:27.000Z</Time><HeartRateBpm><Value>148</Value></HeartRateBpm><SensorState>Present</SensorState></Trackpoint><Trackpoint><Time>2025-12-21T12:48:28.000Z</Time><HeartRateBpm><Value>147</Value></HeartRateBpm><SensorState>Present</SensorState></Trackpoint><Trackpoint><Time>2025-12-21T12:48:29.000Z</Time><HeartRateBpm><Value>147</Value></HeartRateBpm><SensorState>Present</SensorState></Trackpoint><Trackpoint><Time>2025-12-21T12:48:30.000Z</Time><HeartRateBpm><Value>146</Value></HeartRateBpm><SensorState>Present</SensorState></Trackpoint><Trackpoint><Time>2025-12-21T12:48:31.000Z</Time><HeartRateBpm><Value>146</Value></HeartRateBpm><SensorState>Present</SensorState></Trackpoint><Trackpoint><Time>2025-12-21T12:48:32.000Z</Time><HeartRateBpm><Value>147</Value></HeartRateBpm><SensorState>Present</SensorState></Trackpoint><Trackpoint><Time>2025-12-21T12:48:33.000Z</Time><HeartRateBpm><Value>148</Value></HeartRateBpm><SensorState>Present</SensorState></Trackpoint><Trackpoint><Time>2025-12-21T12:48:34.000Z</Time><HeartRateBpm><Value>148</Value></HeartRateBpm><SensorState>Present</SensorState></Trackpoint><Trackpoint><Time>2025-12-21T12:48:35.000Z</Time><HeartRateBpm><Value>148</Value></HeartRateBpm><SensorState>Present</SensorState></Trackpoint><Trackpoint><Time>2025-12-21T12:48:36.000Z</Time><HeartRateBpm><Value>148</Value></HeartRateBpm><SensorState>Present</SensorState></Trackpoint><Trackpoint><Time>2025-12-21T12:48:37.000Z</Time><HeartRateBpm><Value>148</Value></HeartRateBpm><SensorState>Present</SensorState></Trackpoint><Trackpoint><Time>2025-12-21T12:48:38.000Z</Time><HeartRateBpm><Value>148</Value></HeartRateBpm><SensorState>Present</SensorState></Trackpoint><Trackpoint><Time>2025-12-21T12:48:39.000Z</Time><HeartRateBpm><Value>148</Value></HeartRateBpm><SensorState>Present</SensorState></Trackpoint><Trackpoint><Time>2025-12-21T12:48:40.000Z</Time><HeartRateBpm><Value>147</Value></HeartRateBpm><SensorState>Present</SensorState></Trackpoint><Trackpoint><Time>2025-12-21T12:48:41.000Z</Time><HeartRateBpm><Value>147</Value></HeartRateBpm><SensorState>Present</SensorState></Trackpoint><Trackpoint><Time>2025-12-21T12:48:42.000Z</Time><HeartRateBpm><Value>147</Value></HeartRateBpm><SensorState>Present</SensorState></Trackpoint><Trackpoint><Time>2025-12-21T12:48:43.000Z</Time><HeartRateBpm><Value>146</Value></HeartRateBpm><SensorState>Present</SensorState></Trackpoint><Trackpoint><Time>2025-12-21T12:48:44.000Z</Time><HeartRateBpm><Value>146</Value></HeartRateBpm><SensorState>Present</SensorState></Trackpoint><Trackpoint><Time>2025-12-21T12:48:45.000Z</Time><HeartRateBpm><Value>145</Value></HeartRateBpm><SensorState>Present</SensorState></Trackpoint><Trackpoint><Time>2025-12-21T12:48:46.000Z</Time><HeartRateBpm><Value>145</Value></HeartRateBpm><SensorState>Present</SensorState></Trackpoint><Trackpoint><Time>2025-12-21T12:48:47.000Z</Time><HeartRateBpm><Value>142</Value></HeartRateBpm><SensorState>Present</SensorState></Trackpoint><Trackpoint><Time>2025-12-21T12:48:48.000Z</Time><HeartRateBpm><Value>139</Value></HeartRateBpm><SensorState>Present</SensorState></Trackpoint><Trackpoint><Time>2025-12-21T12:48:49.000Z</Time><HeartRateBpm><Value>136</Value></HeartRateBpm><SensorState>Present</SensorState></Trackpoint><Trackpoint><Time>2025-12-21T12:48:50.000Z</Time><HeartRateBpm><Value>133</Value></HeartRateBpm><SensorState>Present</SensorState></Trackpoint><Trackpoint><Time>2025-12-21T12:48:51.000Z</Time><HeartRateBpm><Value>133</Value></HeartRateBpm><SensorState>Present</SensorState></Trackpoint><Trackpoint><Time>2025-12-21T12:48:52.000Z</Time><HeartRateBpm><Value>132</Value></HeartRateBpm><SensorState>Present</SensorState></Trackpoint><Trackpoint><Time>2025-12-21T12:48:53.000Z</Time><HeartRateBpm><Value>132</Value></HeartRateBpm><SensorState>Present</SensorState></Trackpoint><Trackpoint><Time>2025-12-21T12:48:54.000Z</Time><HeartRateBpm><Value>132</Value></HeartRateBpm><SensorState>Present</SensorState></Trackpoint><Trackpoint><Time>2025-12-21T12:48:55.000Z</Time><HeartRateBpm><Value>134</Value></HeartRateBpm><SensorState>Present</SensorState></Trackpoint><Trackpoint><Time>2025-12-21T12:48:56.000Z</Time><HeartRateBpm><Value>134</Value></HeartRateBpm><SensorState>Present</SensorState></Trackpoint><Trackpoint><Time>2025-12-21T12:48:57.000Z</Time><HeartRateBpm><Value>135</Value></HeartRateBpm><SensorState>Present</SensorState></Trackpoint><Trackpoint><Time>2025-12-21T12:48:58.000Z</Time><HeartRateBpm><Value>137</Value></HeartRateBpm><SensorState>Present</SensorState></Trackpoint><Trackpoint><Time>2025-12-21T12:48:59.000Z</Time><HeartRateBpm><Value>137</Value></HeartRateBpm><SensorState>Present</SensorState></Trackpoint><Trackpoint><Time>2025-12-21T12:49:00.000Z</Time><HeartRateBpm><Value>137</Value></HeartRateBpm><SensorState>Present</SensorState></Trackpoint><Trackpoint><Time>2025-12-21T12:49:01.000Z</Time><HeartRateBpm><Value>137</Value></HeartRateBpm><SensorState>Present</SensorState></Trackpoint><Trackpoint><Time>2025-12-21T12:49:02.000Z</Time><HeartRateBpm><Value>135</Value></HeartRateBpm><SensorState>Present</SensorState></Trackpoint><Trackpoint><Time>2025-12-21T12:49:03.000Z</Time><HeartRateBpm><Value>135</Value></HeartRateBpm><SensorState>Present</SensorState></Trackpoint><Trackpoint><Time>2025-12-21T12:49:04.000Z</Time><HeartRateBpm><Value>136</Value></HeartRateBpm><SensorState>Present</SensorState></Trackpoint><Trackpoint><Time>2025-12-21T12:49:05.000Z</Time><HeartRateBpm><Value>137</Value></HeartRateBpm><SensorState>Present</SensorState></Trackpoint><Trackpoint><Time>2025-12-21T12:49:06.000Z</Time><HeartRateBpm><Value>138</Value></HeartRateBpm><SensorState>Present</SensorState></Trackpoint><Trackpoint><Time>2025-12-21T12:49:07.000Z</Time><HeartRateBpm><Value>137</Value></HeartRateBpm><SensorState>Present</SensorState></Trackpoint><Trackpoint><Time>2025-12-21T12:49:08.000Z</Time><HeartRateBpm><Value>137</Value></HeartRateBpm><SensorState>Present</SensorState></Trackpoint><Trackpoint><Time>2025-12-21T12:49:09.000Z</Time><HeartRateBpm><Value>136</Value></HeartRateBpm><SensorState>Present</SensorState></Trackpoint><Trackpoint><Time>2025-12-21T12:49:10.000Z</Time><HeartRateBpm><Value>136</Value></HeartRateBpm><SensorState>Present</SensorState></Trackpoint><Trackpoint><Time>2025-12-21T12:49:11.000Z</Time><HeartRateBpm><Value>136</Value></HeartRateBpm><SensorState>Present</SensorState></Trackpoint><Trackpoint><Time>2025-12-21T12:49:12.000Z</Time><HeartRateBpm><Value>136</Value></HeartRateBpm><SensorState>Present</SensorState></Trackpoint><Trackpoint><Time>2025-12-21T12:49:13.000Z</Time><HeartRateBpm><Value>136</Value></HeartRateBpm><SensorState>Present</SensorState></Trackpoint><Trackpoint><Time>2025-12-21T12:49:14.000Z</Time><HeartRateBpm><Value>136</Value></HeartRateBpm><SensorState>Present</SensorState></Trackpoint><Trackpoint><Time>2025-12-21T12:49:15.000Z</Time><HeartRateBpm><Value>136</Value></HeartRateBpm><SensorState>Present</SensorState></Trackpoint><Trackpoint><Time>2025-12-21T12:49:16.000Z</Time><HeartRateBpm><Value>135</Value></HeartRateBpm><SensorState>Present</SensorState></Trackpoint><Trackpoint><Time>2025-12-21T12:49:17.000Z</Time><HeartRateBpm><Value>135</Value></HeartRateBpm><SensorState>Present</SensorState></Trackpoint><Trackpoint><Time>2025-12-21T12:49:18.000Z</Time><HeartRateBpm><Value>133</Value></HeartRateBpm><SensorState>Present</SensorState></Trackpoint><Trackpoint><Time>2025-12-21T12:49:19.000Z</Time><HeartRateBpm><Value>132</Value></HeartRateBpm><SensorState>Present</SensorState></Trackpoint><Trackpoint><Time>2025-12-21T12:49:20.000Z</Time><HeartRateBpm><Value>131</Value></HeartRateBpm><SensorState>Present</SensorState></Trackpoint><Trackpoint><Time>2025-12-21T12:49:21.000Z</Time><HeartRateBpm><Value>131</Value></HeartRateBpm><SensorState>Present</SensorState></Trackpoint><Trackpoint><Time>2025-12-21T12:49:22.000Z</Time><HeartRateBpm><Value>131</Value></HeartRateBpm><SensorState>Present</SensorState></Trackpoint><Trackpoint><Time>2025-12-21T12:49:23.000Z</Time><HeartRateBpm><Value>130</Value></HeartRateBpm><SensorState>Present</SensorState></Trackpoint><Trackpoint><Time>2025-12-21T12:49:24.000Z</Time><HeartRateBpm><Value>130</Value></HeartRateBpm><SensorState>Present</SensorState></Trackpoint><Trackpoint><Time>2025-12-21T12:49:25.000Z</Time><HeartRateBpm><Value>130</Value></HeartRateBpm><SensorState>Present</SensorState></Trackpoint><Trackpoint><Time>2025-12-21T12:49:26.000Z</Time><HeartRateBpm><Value>131</Value></HeartRateBpm><SensorState>Present</SensorState></Trackpoint><Trackpoint><Time>2025-12-21T12:49:27.000Z</Time><HeartRateBpm><Value>132</Value></HeartRateBpm><SensorState>Present</SensorState></Trackpoint><Trackpoint><Time>2025-12-21T12:49:28.000Z</Time><HeartRateBpm><Value>131</Value></HeartRateBpm><SensorState>Present</SensorState></Trackpoint><Trackpoint><Time>2025-12-21T12:49:29.000Z</Time><HeartRateBpm><Value>130</Value></HeartRateBpm><SensorState>Present</SensorState></Trackpoint><Trackpoint><Time>2025-12-21T12:49:30.000Z</Time><HeartRateBpm><Value>129</Value></HeartRateBpm><SensorState>Present</SensorState></Trackpoint><Trackpoint><Time>2025-12-21T12:49:31.000Z</Time><HeartRateBpm><Value>128</Value></HeartRateBpm><SensorState>Present</SensorState></Trackpoint><Trackpoint><Time>2025-12-21T12:49:32.000Z</Time><HeartRateBpm><Value>126</Value></HeartRateBpm><SensorState>Present</SensorState></Trackpoint><Trackpoint><Time>2025-12-21T12:49:33.000Z</Time><HeartRateBpm><Value>125</Value></HeartRateBpm><SensorState>Present</SensorState></Trackpoint><Trackpoint><Time>2025-12-21T12:49:34.000Z</Time><HeartRateBpm><Value>125</Value></HeartRateBpm><SensorState>Present</SensorState></Trackpoint><Trackpoint><Time>2025-12-21T12:49:35.000Z</Time><HeartRateBpm><Value>124</Value></HeartRateBpm><SensorState>Present</SensorState></Trackpoint><Trackpoint><Time>2025-12-21T12:49:36.000Z</Time><HeartRateBpm><Value>123</Value></HeartRateBpm><SensorState>Present</SensorState></Trackpoint><Trackpoint><Time>2025-12-21T12:49:37.000Z</Time><HeartRateBpm><Value>122</Value></HeartRateBpm><SensorState>Present</SensorState></Trackpoint><Trackpoint><Time>2025-12-21T12:49:38.000Z</Time><HeartRateBpm><Value>122</Value></HeartRateBpm><SensorState>Present</SensorState></Trackpoint><Trackpoint><Time>2025-12-21T12:49:39.000Z</Time><HeartRateBpm><Value>121</Value></HeartRateBpm><SensorState>Present</SensorState></Trackpoint><Trackpoint><Time>2025-12-21T12:49:40.000Z</Time><HeartRateBpm><Value>120</Value></HeartRateBpm><SensorState>Present</SensorState></Trackpoint><Trackpoint><Time>2025-12-21T12:49:41.000Z</Time><HeartRateBpm><Value>119</Value></HeartRateBpm><SensorState>Present</SensorState></Trackpoint><Trackpoint><Time>2025-12-21T12:49:42.000Z</Time><HeartRateBpm><Value>119</Value></HeartRateBpm><SensorState>Present</SensorState></Trackpoint><Trackpoint><Time>2025-12-21T12:49:43.000Z</Time><HeartRateBpm><Value>119</Value></HeartRateBpm><SensorState>Present</SensorState></Trackpoint><Trackpoint><Time>2025-12-21T12:49:44.000Z</Time><HeartRateBpm><Value>118</Value></HeartRateBpm><SensorState>Present</SensorState></Trackpoint><Trackpoint><Time>2025-12-21T12:49:45.000Z</Time><HeartRateBpm><Value>117</Value></HeartRateBpm><SensorState>Present</SensorState></Trackpoint><Trackpoint><Time>2025-12-21T12:49:46.000Z</Time><HeartRateBpm><Value>117</Value></HeartRateBpm><SensorState>Present</SensorState></Trackpoint><Trackpoint><Time>2025-12-21T12:49:47.000Z</Time><HeartRateBpm><Value>117</Value></HeartRateBpm><SensorState>Present</SensorState></Trackpoint><Trackpoint><Time>2025-12-21T12:49:48.000Z</Time><HeartRateBpm><Value>116</Value></HeartRateBpm><SensorState>Present</SensorState></Trackpoint><Trackpoint><Time>2025-12-21T12:49:49.000Z</Time><HeartRateBpm><Value>117</Value></HeartRateBpm><SensorState>Present</SensorState></Trackpoint><Trackpoint><Time>2025-12-21T12:49:50.000Z</Time><HeartRateBpm><Value>117</Value></HeartRateBpm><SensorState>Present</SensorState></Trackpoint><Trackpoint><Time>2025-12-21T12:49:51.000Z</Time><HeartRateBpm><Value>118</Value></HeartRateBpm><SensorState>Present</SensorState></Trackpoint><Trackpoint><Time>2025-12-21T12:49:52.000Z</Time><HeartRateBpm><Value>119</Value></HeartRateBpm><SensorState>Present</SensorState></Trackpoint></Track></Lap><Notes>running up and down the hill home
5 rounds
1.3km 
time: 8:16min</Notes><Training VirtualPartner="false"><Plan Type="Workout" IntervalWorkout="false"><Name>Bootcamp</Name><Extensions></Extensions></Plan></Training><Creator xmlns:xsi="http://www.w3.org/2001/XMLSchema-instance" xsi:type="Device_t"><Name>Polar BEAT</Name><UnitId>0</UnitId><ProductID>25</ProductID><Version><VersionMajor>0</VersionMajor><VersionMinor>0</VersionMinor></Version></Creator></Activity></Activities><Author xmlns:xsi="http://www.w3.org/2001/XMLSchema-instance" xsi:type="Application_t"><Name>Polar Beat2 Android</Name><Build><Version><VersionMajor>0</VersionMajor><VersionMinor>0</VersionMinor></Version></Build><LangID>EN</LangID><PartNumber>XXX-XXXXX-XX</PartNumber></Author></TrainingCenterDatabase>